{"type":"FeatureCollection","features":[{"type":"Feature","properties":{"name":"Tocopilla","comuna":"Tocopilla","cut":"02301","metro":null,"es_bbox":false},"geometry":{"type":"Polygon","coordinates":[[[-70.2239,-22.1495],[-70.2144,-22.1304],[-70.2166,-22.1239],[-70.214,-22.1102],[-70.2176,-22.1055],[-70.2106,-22.0946],[-70.1986,-22.0883],[-70.1932,-22.0646],[-70.1889,-22.0589],[-70.1948,-22.0473],[-70.1921,-22.0367],[-70.1976,-22.0135],[-70.1915,-22.0087],[-70.19072051282052,-22.0075],[-70.1339,-22.0075],[-70.1339,-22.1642],[-70.22590104712042,-22.1642],[-70.2239,-22.1495]]]}}]}