{"type":"FeatureCollection","features":[{"type":"Feature","properties":{"cut":1101,"comuna":"IQUIQUE"},"geometry":{"type":"Polygon","coordinates":[[[-70.21057357609723,-20.81158139145359],[-70.19650450199993,-20.80605278799993],[-70.19360080599995,-20.803335774999937],[-70.19304158799991,-20.80097120599993],[-70.1851132239999,-20.79768754999992],[-70.1863308639999,-20.793657352999958],[-70.1885672059999,-20.792572891999953],[-70.18742960499992,-20.789530374999913],[-70.18854352299991,-20.788815405999912],[-70.18758616199995,-20.788260544999957],[-70.18933424499994,-20.78715245999996],[-70.18795488599994,-20.782556727999918],[-70.18929842499995,-20.78257981899992],[-70.19032256699995,-20.77847493699994],[-70.19405994199991,-20.774847906999923],[-70.19291514399993,-20.772345361999953],[-70.19444970199993,-20.76747026499993],[-70.19372039699994,-20.763048212999934],[-70.19692553399994,-20.761865144999945],[-70.19583250599993,-20.758638796999946],[-70.19949224099992,-20.753246755999953],[-70.19685272599992,-20.75042531799994],[-70.19763624799992,-20.749340073999917],[-70.19402444799994,-20.748404187999938],[-70.19306072699993,-20.74700715399996],[-70.19132142599994,-20.74771028099991],[-70.18621841099991,-20.743955503999928],[-70.18381165799991,-20.738540738999916],[-70.18409629099995,-20.735288605999926],[-70.18628671199991,-20.732098923999956],[-70.19095777599995,-20.730576536999934],[-70.19145743299993,-20.728424292999932],[-70.19609584599993,-20.72715034999993],[-70.1985397819999,-20.714650973999937],[-70.19707329399995,-20.712048083999946],[-70.19771867999992,-20.710202550999952],[-70.19323675499993,-20.706475990999934],[-70.19367919599995,-20.704356530999917],[-70.19138602399994,-20.703141444999915],[-70.18997500199993,-20.704673709999952],[-70.18895010199992,-20.70348221699993],[-70.19115026199995,-20.699768718999906],[-70.19027308599993,-20.698387245999925],[-70.19182710699994,-20.698273919999906],[-70.18976989399994,-20.697872420999943],[-70.1909661389999,-20.696028502999923],[-70.18799153999993,-20.69422958599995],[-70.18733512099993,-20.689504602999932],[-70.18979244399992,-20.68825668599993],[-70.1892838469999,-20.681889395999917],[-70.19209847799993,-20.680865740999934],[-70.19251219699993,-20.679480739999917],[-70.19074501599994,-20.676512715999934],[-70.18718858999995,-20.67509031299994],[-70.18839552799994,-20.672425693999912],[-70.18633911699993,-20.670604195999942],[-70.18913389799991,-20.667054003999908],[-70.18831174499991,-20.66462602899992],[-70.1862292859999,-20.66328841299992],[-70.18577899799993,-20.660728926999923],[-70.18286999999992,-20.660169999999937],[-70.18219999999991,-20.657679999999914],[-70.18309999999991,-20.648489999999924],[-70.1855799999999,-20.646949999999947],[-70.18517999999995,-20.644399999999905],[-70.18832999999995,-20.644199999999955],[-70.19175999999993,-20.640739998999948],[-70.19045999999992,-20.63772999999992],[-70.19311999999991,-20.63465999999994],[-70.19378999999992,-20.62966999999992],[-70.19546999999994,-20.62874999999991],[-70.1982999999999,-20.623419999999953],[-70.19796999999994,-20.613839999999925],[-70.19938250599995,-20.613523926999903],[-70.1995434129999,-20.609791985999948],[-70.19660548399992,-20.606453659999943],[-70.19772783199994,-20.604104697999958],[-70.19670374999993,-20.59981568099994],[-70.1911882309999,-20.594985735999956],[-70.19046573399993,-20.590168497999912],[-70.19139873299991,-20.58827512399995],[-70.19326829799991,-20.58789129999991],[-70.19083239699995,-20.58297835099995],[-70.1940419039999,-20.58019300399991],[-70.19044794099995,-20.577572800999917],[-70.19077575999995,-20.575678214999925],[-70.19259537399995,-20.57476252999993],[-70.19169062299994,-20.574106444999927],[-70.1933800299999,-20.571424038999908],[-70.19258461299995,-20.568967338999926],[-70.19389343199992,-20.568442228999913],[-70.19349782499995,-20.566015029999903],[-70.19701015699991,-20.566979957999934],[-70.19567695499995,-20.562903454999912],[-70.19664319199995,-20.560907682999925],[-70.19437870399992,-20.55523556299994],[-70.19547403299993,-20.55516349599992],[-70.1954633279999,-20.553787326999952],[-70.19354846499994,-20.551959266999916],[-70.19551901599993,-20.54499121999993],[-70.19728496899995,-20.543097445999933],[-70.19974804199995,-20.54277935999994],[-70.19833476199994,-20.540122665999945],[-70.20023784299991,-20.538260171999923],[-70.19744142699994,-20.533871228999942],[-70.1986222139999,-20.533067427999924],[-70.19607999999994,-20.527549999999906],[-70.19439999999992,-20.526839999999936],[-70.19225999999992,-20.52798999999993],[-70.18756999999994,-20.526539999999954],[-70.1871999999999,-20.523259999999937],[-70.18491999999992,-20.52171999999996],[-70.18418999999994,-20.515559999999937],[-70.18083999999993,-20.513849999999934],[-70.17503999999991,-20.505169999999907],[-70.17014999999992,-20.504419999999925],[-70.16613237799993,-20.50065122099994],[-70.16588225699991,-20.499265886999922],[-70.16731969999995,-20.499213219999945],[-70.16769394599993,-20.497398984999904],[-70.16249577299993,-20.48903112599993],[-70.16167660799994,-20.484805665999943],[-70.16574804299995,-20.48112423099991],[-70.16894232499993,-20.481079112999907],[-70.16941468199991,-20.478810754999927],[-70.1678755499999,-20.476958098999944],[-70.1693464249999,-20.473115734999908],[-70.16472049099991,-20.473457298999904],[-70.16228957999994,-20.471510017999947],[-70.15938593899995,-20.466357328999948],[-70.1595986829999,-20.462328490999937],[-70.15822501999992,-20.46145025599992],[-70.16048599999993,-20.458247354999912],[-70.15814752199992,-20.454359479999937],[-70.16053728199995,-20.453796474999933],[-70.1615990379999,-20.451876099999936],[-70.16241973599995,-20.445314382999925],[-70.15942739099995,-20.443501856999944],[-70.15845677599992,-20.440695985999923],[-70.1619044009999,-20.437926620999917],[-70.16090826599992,-20.437047642999914],[-70.16244548599991,-20.435445139999956],[-70.16108885199992,-20.434474352999928],[-70.1630037619999,-20.42993451199993],[-70.16215907299994,-20.429252378999934],[-70.16508957999991,-20.428196421999928],[-70.1659226509999,-20.426009755999928],[-70.16415912799994,-20.42408542499993],[-70.16644865699993,-20.42419258399991],[-70.16699463999993,-20.422375276999958],[-70.16301300999993,-20.41387539099992],[-70.16030911199994,-20.411797117999924],[-70.15867367899995,-20.408260772999938],[-70.1648207419999,-20.404422894999925],[-70.1622898359999,-20.402739195999914],[-70.16223884099992,-20.401269767999906],[-70.16838746999991,-20.395953620999933],[-70.16787924899995,-20.392070118999925],[-70.17261132599992,-20.390511554999932],[-70.17310399399992,-20.387804073999916],[-70.1775458539999,-20.38409152899993],[-70.1775286699999,-20.38182831799992],[-70.17890688099993,-20.381628158999945],[-70.17834536999993,-20.37901111599996],[-70.18209634399994,-20.378950795999913],[-70.1823220789999,-20.377150970999935],[-70.1803256419999,-20.374019483999916],[-70.1834334909999,-20.362904904999937],[-70.18179340299992,-20.361631131999957],[-70.1818309439999,-20.358324586999913],[-70.17663654799992,-20.350636909999935],[-70.17069999999995,-20.350389999999948],[-70.16925999999995,-20.348379999999906],[-70.15959999899991,-20.344379999999944],[-70.15849999999995,-20.34230999999994],[-70.15488999899992,-20.34086999999994],[-70.15467999999993,-20.33782999999994],[-70.15193999899992,-20.335869999999943],[-70.1517399999999,-20.33319999999992],[-70.1453899999999,-20.331969999999956],[-70.14290999899993,-20.328769999999906],[-70.14204999999993,-20.324949999999944],[-70.1391999999999,-20.322089999999946],[-70.1377799999999,-20.315999999999917],[-70.13881999999995,-20.312349999999924],[-70.13697999999994,-20.307169999999928],[-70.1373099999999,-20.304649999999924],[-70.13555488899993,-20.301668716999927],[-70.13684999999992,-20.30018999999993],[-70.13438619499993,-20.29733005299994],[-70.1317126859999,-20.29758155199994],[-70.12936507099994,-20.295418326999936],[-70.13130632499991,-20.29396922099994],[-70.13190510699991,-20.29161623999994],[-70.13389541999993,-20.291079328999956],[-70.13318838499993,-20.288910979999912],[-70.1292308749999,-20.287057254999922],[-70.1304537119999,-20.284763497999904],[-70.12973306399994,-20.280539741999917],[-70.13342508699992,-20.27429525799994],[-70.13134922899991,-20.273116046999917],[-70.13249866899992,-20.27239482099992],[-70.13127542299992,-20.27160314999992],[-70.13259462499991,-20.27098024499992],[-70.1316213959999,-20.268519959999935],[-70.13247336699993,-20.26787748499993],[-70.13093179999993,-20.264277928999945],[-70.13455504099994,-20.260974785999906],[-70.1340535889999,-20.25825394499992],[-70.14007061899991,-20.24822215799992],[-70.15453667199995,-20.235193875999926],[-70.1544809959999,-20.233771222999906],[-70.15200296599994,-20.233087290999947],[-70.15345580099995,-20.23417098899995],[-70.14928231699992,-20.235002489999943],[-70.14772703299991,-20.23198140599993],[-70.1491346119999,-20.22740045499995],[-70.15645599399994,-20.218570305999947],[-70.1558775389999,-20.21735889999991],[-70.15820196299995,-20.21736617299996],[-70.1574218749999,-20.216070267999953],[-70.15934722499992,-20.21542511499996],[-70.15471323499992,-20.21287613399994],[-70.1545781239999,-20.211670840999943],[-70.15756602099992,-20.209650299999907],[-70.16157707799994,-20.21039141299991],[-70.16375987799995,-20.207576100999916],[-70.16115314399991,-20.206463967999923],[-70.15745658599991,-20.200254162999954],[-70.15950561699992,-20.20506989699993],[-70.15826550499992,-20.205705966999915],[-70.15675577099995,-20.203077719999953],[-70.15533328399994,-20.203087398999912],[-70.15717555999993,-20.205740317999926],[-70.15514241099993,-20.206467449999934],[-70.15706622999994,-20.20591268599992],[-70.15721700299991,-20.207090768999933],[-70.15536237999993,-20.20721591399996],[-70.1550280539999,-20.210588191999932],[-70.15351311499995,-20.211072487999957],[-70.1518720489999,-20.210066810999933],[-70.1513474329999,-20.20774823599993],[-70.14770235399993,-20.205454585999917],[-70.14815212499991,-20.204060243999947],[-70.14667005699994,-20.20547487899995],[-70.14304272399994,-20.204039345999945],[-70.14125584499993,-20.201679245999912],[-70.14299763699995,-20.200484325999923],[-70.14072138799992,-20.201145126999904],[-70.13805795399992,-20.194539652999936],[-70.13746748599993,-20.189786480999942],[-70.14048999999994,-20.18187999999992],[-70.14050999999995,-20.178209999999922],[-70.1423299999999,-20.175949999999943],[-70.14395999999994,-20.17614999999995],[-70.1435899999999,-20.17348999999996],[-70.15237999999994,-20.163899999999956],[-70.15170999999992,-20.162199999999928],[-70.1529799999999,-20.158679999999947],[-70.1478699999999,-20.151239999999916],[-70.14381999999995,-20.15035999999992],[-70.14112999999992,-20.14701999999994],[-70.13969999999995,-20.14229999999992],[-70.13794999999993,-20.14175999999992],[-70.13814999999994,-20.133679999999913],[-70.1358899999999,-20.13196999999991],[-70.13533999999993,-20.128819999999905],[-70.13407999999993,-20.128559999999936],[-70.13355999999993,-20.121229999999912],[-70.13103999999993,-20.118729999999914],[-70.1338399999999,-20.112739999999917],[-70.1275599999999,-20.106379999999945],[-70.12714999999992,-20.101629999999943],[-70.1219999999999,-20.089839999999924],[-70.12294999999995,-20.084919999999954],[-70.1248799999999,-20.08140999999995],[-70.12748999999991,-20.079729999999927],[-70.1259599999999,-20.077069999999935],[-70.12725999999992,-20.073579999999936],[-70.12972999999994,-20.070679999999925],[-70.13166999999993,-20.070349999999905],[-70.13170999999994,-20.068449999999928],[-70.13398999999993,-20.068289999999934],[-70.13260999999994,-20.066779999999937],[-70.13265879999994,-20.06332001599992],[-70.09893999999991,-20.085039999999935],[-70.1022999999999,-20.11400999999995],[-70.12000999999992,-20.155189999999948],[-70.11014999999992,-20.205539999999928],[-70.11122999999992,-20.233549999999923],[-70.11915362299993,-20.23349270999995],[-70.11861999899992,-20.23756999999995],[-70.11987999999991,-20.24204999999995],[-70.11508999999995,-20.248449998999945],[-70.1106486939999,-20.249601227999904],[-70.11188426599995,-20.250974865999922],[-70.11171786499995,-20.253838248999955],[-70.11013194899994,-20.255762297999922],[-70.11210810199992,-20.257670822999955],[-70.11095539999991,-20.26250297699994],[-70.10957784899995,-20.263136931999952],[-70.11080748499995,-20.263957302999927],[-70.11135906999993,-20.273556775999907],[-70.10985462199994,-20.274377225999956],[-70.1198140859999,-20.302764460999924],[-70.12238450399991,-20.302559514999928],[-70.1228167729999,-20.303764285999932],[-70.12065510499991,-20.305161867999914],[-70.12437999999992,-20.315779999999904],[-70.10949999999991,-20.351309999999955],[-70.07733999999994,-20.465689999999938],[-70.0289499989999,-20.58047999999991],[-70.05235999999991,-20.694939999999917],[-69.99582999899991,-20.83615999999995],[-69.81984999999992,-21.117099999999937],[-69.89074999999991,-21.110219999999913],[-69.8816799999999,-21.304539999999918],[-69.92974999899991,-21.37295999999992],[-69.93023450499993,-21.424600488999943],[-69.9403908999999,-21.422990540999933],[-69.94255888899994,-21.425366973999928],[-69.95211901199991,-21.425527578999947],[-69.95862901499993,-21.42821929699994],[-69.96052819599993,-21.430374250999932],[-69.96716091999991,-21.432269662999943],[-69.96930076199993,-21.43155540999993],[-69.9717713309999,-21.433081045999927],[-69.98301894799994,-21.434902947999944],[-69.98933167699994,-21.43319887499996],[-69.99618116599993,-21.437521727999922],[-69.99855081099992,-21.43694923299995],[-70.00716052399991,-21.438896290999935],[-70.01065074599995,-21.436188537999953],[-70.02093893299991,-21.43411664799993],[-70.02682944999992,-21.429201359999922],[-70.03252520399991,-21.429692209999928],[-70.0353442519999,-21.42664843299991],[-70.03981081099994,-21.424714604999906],[-70.04755065099994,-21.425741237999944],[-70.05827711799992,-21.430006745999947],[-70.06488999999993,-21.421049999999923],[-70.06775999999991,-21.413569999999936],[-70.07114999999993,-21.409569999999917],[-70.07295999999991,-21.404669999999953],[-70.07250999999991,-21.402659999999912],[-70.0778699999999,-21.395049999999912],[-70.08010999999993,-21.387489999999957],[-70.08580999999992,-21.381419999999935],[-70.08727999999991,-21.37754999999993],[-70.08616999999992,-21.374349999999936],[-70.09015999999991,-21.368279999999913],[-70.09163999999993,-21.358589999999936],[-70.0950811859999,-21.353587709999942],[-70.0958208369999,-21.34974068699995],[-70.09753248699991,-21.348862788999952],[-70.09767521899994,-21.345843799999955],[-70.09584930499994,-21.344679452999912],[-70.09785199799995,-21.338521922999917],[-70.08663800599993,-21.336675629999945],[-70.0837386099999,-21.333273874999918],[-70.0821124389999,-21.32777442999992],[-70.07568331199991,-21.325045253999917],[-70.07016307399994,-21.32005807999991],[-70.06611457899993,-21.308390629999906],[-70.06663849599994,-21.294024277999938],[-70.07244537399993,-21.284039278999956],[-70.07223001099993,-21.28052727599993],[-70.07613780699995,-21.274044399999923],[-70.0759054049999,-21.271604320999927],[-70.07942018499995,-21.268453465999926],[-70.07911040599993,-21.266729717999908],[-70.08376826999995,-21.25791639299996],[-70.08653507799994,-21.25696219699995],[-70.0859849709999,-21.253994079999927],[-70.08774865099991,-21.253595773999905],[-70.08663706599992,-21.25286002599995],[-70.08774010799993,-21.250183058999937],[-70.08461263299995,-21.249212650999937],[-70.08369541099995,-21.247957137999947],[-70.08453181499993,-21.24719336599992],[-70.08220176499992,-21.244631340999945],[-70.08260012199992,-21.242663147999906],[-70.08077800199993,-21.24182357399991],[-70.08069492999994,-21.239487010999937],[-70.08254792699995,-21.237776476999954],[-70.0814347669999,-21.236804667999934],[-70.08235173999992,-21.23577727499992],[-70.0815561469999,-21.234207544999947],[-70.08301379999995,-21.233753216999958],[-70.08205812999995,-21.230605813999944],[-70.08520221799995,-21.227134147999948],[-70.0845695939999,-21.22640303499992],[-70.08623653099994,-21.22523537299992],[-70.0865020949999,-21.223179029999926],[-70.08822354999995,-21.222699745999932],[-70.08758951499993,-21.221775184999956],[-70.08941227299994,-21.22048266999991],[-70.09056286999993,-21.216451099999915],[-70.09422495399991,-21.21502282499995],[-70.0934904049999,-21.21389772999993],[-70.09511092899993,-21.213179132999926],[-70.09413306999994,-21.211513906999926],[-70.0956404879999,-21.21112880399994],[-70.09335904499994,-21.207266485999924],[-70.09538922199994,-21.206154429999913],[-70.09627490499992,-21.204279779999922],[-70.0952196849999,-21.20330767599995],[-70.09633415199994,-21.203362355999957],[-70.0964240369999,-21.202123574999916],[-70.09420059599995,-21.200516725999933],[-70.09296125499992,-21.19694557999992],[-70.09502888399993,-21.191250600999922],[-70.09830958299995,-21.186265447999915],[-70.10250132099992,-21.183506847999922],[-70.10203202799994,-21.18168903499992],[-70.10533611199992,-21.177637791999928],[-70.11074806199991,-21.17556769899994],[-70.1090986179999,-21.17283138399995],[-70.10995848899995,-21.166031741999916],[-70.11150193299994,-21.16123326999991],[-70.11574134499995,-21.15820488399993],[-70.11438397699993,-21.153883316999952],[-70.11534364999994,-21.15017982899991],[-70.12511737499995,-21.13915824599991],[-70.12718894799991,-21.135241468999936],[-70.13349626699994,-21.129095497999913],[-70.13486591799995,-21.12945050099995],[-70.13477202399991,-21.128200270999912],[-70.13221123999995,-21.12710509199991],[-70.13146604199994,-21.124529182999936],[-70.12765896999991,-21.122076592999917],[-70.1271838749999,-21.11615003399993],[-70.12140181099994,-21.111319520999928],[-70.12220591099992,-21.105491341999937],[-70.12140241399993,-21.10466142799993],[-70.12318452999995,-21.103244386999904],[-70.12285856599993,-21.10028563499992],[-70.12430999999992,-21.098679999999945],[-70.12367999999992,-21.092949999999917],[-70.12513999999993,-21.087419999999952],[-70.13143999999994,-21.079579999999908],[-70.13663999999994,-21.078859999999906],[-70.13872999999995,-21.076409999999953],[-70.13853999999992,-21.073539999999923],[-70.14387999999991,-21.070139999999924],[-70.14459999999991,-21.067019999999957],[-70.1471699999999,-21.06448999999992],[-70.14870999999994,-21.06478999999996],[-70.14854999999994,-21.062919999999906],[-70.15204999999992,-21.06230999999991],[-70.15181999999993,-21.05983999999995],[-70.1550499999999,-21.058769999999924],[-70.15521999999993,-21.055309999999906],[-70.15607999999992,-21.055819999999926],[-70.15533999999991,-21.053549999999916],[-70.15809999999993,-21.046999999999912],[-70.16231999999991,-21.045099999999934],[-70.16424999999992,-21.037129999999934],[-70.16602999999992,-21.037199999999928],[-70.16548999899993,-21.035799999999938],[-70.16727999999995,-21.034779999999955],[-70.16576999999995,-21.033859999999947],[-70.1672099999999,-21.03293999999994],[-70.16521999999992,-21.032009999999957],[-70.16589999999991,-21.030189999999948],[-70.16787999999991,-21.03012999999993],[-70.16904999999991,-21.02768999999995],[-70.17145999999991,-21.027839999999912],[-70.17190999999991,-21.026479999999935],[-70.1756999989999,-21.02648999999991],[-70.1757399999999,-21.025229999999908],[-70.17794999999995,-21.023949999999957],[-70.17328999999995,-21.019009999999923],[-70.17239999999993,-21.01200999999992],[-70.1715799989999,-21.012689999999907],[-70.17079999899994,-21.009799999999927],[-70.16845999999993,-21.009189999999933],[-70.16563999999994,-21.005399999999952],[-70.16486017699992,-21.000187684999958],[-70.16614984999995,-20.998281662999943],[-70.16298499599992,-20.996916553999938],[-70.1637058309999,-20.995935928999927],[-70.16250451399992,-20.993956597999954],[-70.15570999999994,-20.98789999999991],[-70.15536999999995,-20.98258999999996],[-70.1585399999999,-20.97935999999993],[-70.15828999999991,-20.977319999999906],[-70.15309999999994,-20.973359999999957],[-70.14965999999993,-20.97341999999992],[-70.14692999999994,-20.96920999999992],[-70.14720999999992,-20.966039999999907],[-70.14266999999995,-20.96222999999992],[-70.14273999999995,-20.960219999999936],[-70.13960999999995,-20.95951999999994],[-70.13083999999992,-20.950759999999946],[-70.12694999999991,-20.941609999999912],[-70.12690999999995,-20.933529999999905],[-70.13328999899994,-20.92065999999994],[-70.13941999999992,-20.91751999999991],[-70.14260999999993,-20.91417999999993],[-70.1416299999999,-20.91023999999993],[-70.1365899999999,-20.906859999999938],[-70.13728999999995,-20.90205999999995],[-70.14114999999993,-20.90304999999995],[-70.14179999999993,-20.902189999999905],[-70.13675048099992,-20.892180321999945],[-70.13841610399993,-20.88952722299996],[-70.13738999999993,-20.88528999999994],[-70.13900999999993,-20.881869999999935],[-70.1424199999999,-20.88038999999992],[-70.14284999999995,-20.87354999999991],[-70.14389999999992,-20.870939999999905],[-70.14665999999994,-20.869599999999934],[-70.14666999999992,-20.86662999999993],[-70.15172999999993,-20.86119999999994],[-70.15525999999994,-20.861059999999952],[-70.15499999999992,-20.85749999999996],[-70.16603999999995,-20.844529999999907],[-70.17360999999994,-20.83850999999993],[-70.17789999999991,-20.83683999999994],[-70.17962999899993,-20.837699999999927],[-70.17952999999994,-20.833139999999958],[-70.18895667499993,-20.821751307999932],[-70.19199528599995,-20.81967862299996],[-70.19472512999994,-20.82069620799996],[-70.19435525799992,-20.818938745999958],[-70.19538156099992,-20.818013779999944],[-70.1967562239999,-20.819029978999936],[-70.19814670699992,-20.816234438999913],[-70.20017963999993,-20.81626341099991],[-70.20007828299993,-20.81506556699992],[-70.20325269099993,-20.815669589999914],[-70.20365846699991,-20.814705740999955],[-70.20504549099991,-20.815829763999943],[-70.20447532199995,-20.81344746299993],[-70.20584413199992,-20.812282481999944],[-70.20700849499991,-20.812846571999955],[-70.20898941899992,-20.81211996399992],[-70.20862724199992,-20.81134507899992],[-70.21135063699995,-20.812999513999955],[-70.21057357609723,-20.81158139145359]]]}},{"type":"Feature","properties":{"cut":1401,"comuna":"POZO ALMONTE"},"geometry":{"type":"Polygon","coordinates":[[[-68.99252634999993,-19.92022832899994],[-68.9993071479999,-19.915189178999924],[-69.00623061699991,-19.914427306999926],[-69.01767915999994,-19.920947070999944],[-69.0213639609999,-19.92075462999992],[-69.02683130199995,-19.92330980899993],[-69.03745778899992,-19.922421985999904],[-69.04388691499992,-19.925965641999937],[-69.05299576099992,-19.92839493999992],[-69.05420462899991,-19.93026968299995],[-69.05269004999991,-19.94072971399993],[-69.06087044999992,-19.94333466699993],[-69.0637372299999,-19.945443153999918],[-69.07077022399994,-19.94485452099991],[-69.08386994099993,-19.962339996999958],[-69.08628749899992,-19.96342287999994],[-69.0951188109999,-19.963447665999922],[-69.09888599199991,-19.96707860899994],[-69.10979629999991,-19.970880983999905],[-69.11884469799992,-19.970582169999943],[-69.12341386199995,-19.968498863999912],[-69.12688441999995,-19.968379222999943],[-69.1325918789999,-19.975172271999952],[-69.14200096999991,-19.97947184499992],[-69.1465470839999,-19.986030969999945],[-69.1527790259999,-19.988809046999904],[-69.17428879599993,-19.99007833199994],[-69.17788575199995,-19.991744758999914],[-69.18450232499993,-19.991474311999923],[-69.1964586119999,-19.98601199399991],[-69.2200725909999,-19.985017417999927],[-69.24538184399995,-19.978274916999908],[-69.27297269299993,-19.97509970099992],[-69.2822917549999,-19.97895246899992],[-69.29194444899991,-19.97861456299995],[-69.3242266179999,-19.98934016299995],[-69.81539000099991,-20.102149999999938],[-69.89304999899991,-20.048539999999946],[-69.91376999999994,-20.22900999999996],[-69.96762000399991,-20.321179998999924],[-70.02821999999992,-20.305829999999958],[-70.10949999999991,-20.351309999999955],[-70.07733999999994,-20.465689999999938],[-70.0289499989999,-20.58047999999991],[-70.05235999999991,-20.694939999999917],[-69.99582999899991,-20.83615999999995],[-69.81984999999992,-21.117099999999937],[-69.89074999999991,-21.110219999999913],[-69.8816799999999,-21.304539999999918],[-69.92974999899991,-21.37295999999992],[-69.93023450499993,-21.424600488999943],[-69.92472813799992,-21.426169113999947],[-69.91932362699993,-21.425603090999914],[-69.91238814499991,-21.429224419999912],[-69.90410602799994,-21.425140961999944],[-69.89941695699991,-21.430149695999944],[-69.89067840699994,-21.43160523499995],[-69.8844238069999,-21.434093336999922],[-69.88124391899993,-21.43687871499992],[-69.87347626799993,-21.436157172999913],[-69.8696762319999,-21.433508213999914],[-69.8633365039999,-21.43432955199995],[-69.86120887099992,-21.43684258099995],[-69.85812573099992,-21.43790968399992],[-69.85536333099992,-21.437248138999905],[-69.85303141599991,-21.439492298999937],[-69.8415391389999,-21.436801267999954],[-69.8310540729999,-21.44247013499995],[-69.8263372319999,-21.43919250899995],[-69.82327279499992,-21.439964604999943],[-69.81862951099993,-21.436483106999958],[-69.8094616379999,-21.439675717999933],[-69.8017944099999,-21.440545121999946],[-69.7962819679999,-21.438381739999954],[-69.79150672199995,-21.440214607999906],[-69.7876638109999,-21.437388644999942],[-69.7810336739999,-21.440699921999908],[-69.77895113999995,-21.437644569999918],[-69.78238992399992,-21.433475296999916],[-69.78205949599993,-21.432052123999938],[-69.7798161369999,-21.43092841899994],[-69.77683339099991,-21.42617600999995],[-69.7717429349999,-21.425160165999955],[-69.7681335229999,-21.423309592999942],[-69.76697806899995,-21.42068551199992],[-69.76424648299991,-21.42040226799992],[-69.76258099899991,-21.425403814999925],[-69.75583514399995,-21.42778536299994],[-69.75616014999991,-21.430847583999935],[-69.7548592679999,-21.43383794999994],[-69.74707098199991,-21.43767898099992],[-69.7381654799999,-21.44440762599993],[-69.73490112999991,-21.44444178799995],[-69.7342976079999,-21.44744254999995],[-69.73230842299995,-21.446112444999926],[-69.7285029489999,-21.44950332399992],[-69.72532869499992,-21.448537124999916],[-69.7227500589999,-21.45202772999994],[-69.71852332599991,-21.450448501999915],[-69.7133389569999,-21.452508611999917],[-69.71178255799992,-21.45045750999992],[-69.70770144599993,-21.449989772999913],[-69.70643446399993,-21.453123173999927],[-69.70151171599991,-21.455221412999947],[-69.7011330329999,-21.45318885599994],[-69.69752189999991,-21.452872251999906],[-69.69584881199995,-21.45076361799994],[-69.69372146899991,-21.450454228999945],[-69.6885703339999,-21.454161479999925],[-69.68802572899995,-21.458916306999924],[-69.6838989179999,-21.458693783999934],[-69.6785692279999,-21.461740145999954],[-69.67734095499992,-21.460964599999954],[-69.6670459419999,-21.46210575099991],[-69.66489399299991,-21.474458630999948],[-69.66097706099993,-21.478750531999935],[-69.66189085399992,-21.481419599999924],[-69.65558689699992,-21.485505047999936],[-69.64983678199991,-21.495580625999935],[-69.6442710039999,-21.49912287099994],[-69.6393202029999,-21.499749322999946],[-69.64074952199991,-21.506158055999947],[-69.63587277099992,-21.50986075499992],[-69.6353601209999,-21.514840569999933],[-69.62964747399991,-21.52044531599995],[-69.62977472499995,-21.526045477999958],[-69.6260140199999,-21.528976171999943],[-69.62762365999993,-21.531592820999947],[-69.63322987599992,-21.531595758999913],[-69.62760488099991,-21.53485810199993],[-69.62804400399995,-21.53777737599995],[-69.6250739649999,-21.540419996999958],[-69.62586543999993,-21.545710656999915],[-69.61058279699995,-21.550188179999907],[-69.61059882499995,-21.551777965999918],[-69.60613844699992,-21.55355951899992],[-69.60500856599992,-21.55584767299996],[-69.5987985189999,-21.560495888999924],[-69.59725506399991,-21.566694786999903],[-69.5945966509999,-21.56811033799994],[-69.59435108199995,-21.572418565999953],[-69.58632433399993,-21.583621513999958],[-69.58668286799991,-21.586066210999945],[-69.58472152999991,-21.587516071999914],[-69.58310863899993,-21.592198277999955],[-69.5780329339999,-21.596418721999953],[-69.57922358499991,-21.599012659999914],[-69.57877362799991,-21.60563233499994],[-69.57259724199992,-21.60992975499994],[-69.57209845299991,-21.61251247599995],[-69.56690246199992,-21.615338253999937],[-69.56617957999993,-21.62072970899993],[-69.5633843299999,-21.620794117999935],[-69.56274856199991,-21.623162812999908],[-69.55916464899991,-21.62329883399991],[-69.55790257799993,-21.621713146999923],[-69.5569404119999,-21.62325167499995],[-69.55775221099992,-21.624936420999916],[-69.55328908399991,-21.626486635999925],[-69.55126560399992,-21.630609919999927],[-69.31306999999993,-21.398169999999936],[-68.86080999899991,-21.28511999999995],[-68.9005100039999,-21.172950000999947],[-68.96731999999992,-21.097399999999936],[-68.96656999999993,-20.912809999999922],[-68.95447000099995,-20.828260003999958],[-68.95669007499993,-20.825932809999927],[-68.95936991199994,-20.817349073999935],[-68.96313172799995,-20.811410141999943],[-68.96448751199995,-20.803660976999936],[-68.9630916719999,-20.800209749999908],[-68.96544999999992,-20.79248999999993],[-68.95718650899994,-20.78402420799995],[-68.9582351219999,-20.776009685999952],[-68.9556321419999,-20.771613475999914],[-68.95772718699993,-20.76300876299996],[-68.96220397899992,-20.76105857899995],[-68.96330493199991,-20.75934593799991],[-68.95913470399995,-20.759717390999924],[-68.9561089849999,-20.75833842599991],[-68.95413464499995,-20.75642038999996],[-68.95400845499995,-20.752375582999946],[-68.95935480299994,-20.73436849399991],[-68.95870569099992,-20.73033125899991],[-68.96126424699992,-20.72582581699993],[-68.96155713099995,-20.711513416999935],[-68.96424916899991,-20.705065301999923],[-68.96213549799995,-20.694840874999954],[-68.96756671499992,-20.688971373999948],[-68.97428032999994,-20.687817689999918],[-68.97807059999991,-20.684591516999944],[-68.98492838399994,-20.68269019999991],[-68.99086298999993,-20.67921482199995],[-68.99666105099993,-20.67845725099994],[-68.9990471829999,-20.676674875999936],[-69.0027706649999,-20.675821654999936],[-69.00578188399993,-20.677284208999936],[-69.01216029699992,-20.675638421999906],[-69.0181828819999,-20.67792324599992],[-69.02035258799992,-20.68051307299993],[-69.03204119599991,-20.68481773399992],[-69.03480988799993,-20.684840350999934],[-69.03730140599993,-20.682253266999908],[-69.03968275599993,-20.68285265599991],[-69.04343422699992,-20.688268670999946],[-69.04517791099994,-20.687950618999935],[-69.04748472199992,-20.68964388799992],[-69.04768974199993,-20.685691421999934],[-69.04918999999995,-20.684999999999945],[-69.05250705599991,-20.686407475999943],[-69.05731418099992,-20.68478274599994],[-69.06160472699992,-20.686574956999948],[-69.06454946199995,-20.685364664999952],[-69.06862140599992,-20.68634134699994],[-69.07060999999993,-20.687719999999956],[-69.0728364119999,-20.69564842999995],[-69.0775691529999,-20.703740670999935],[-69.08296530699994,-20.710065543999917],[-69.0878173609999,-20.711691698999914],[-69.09028215199993,-20.714167463999956],[-69.09727065299995,-20.71503322299992],[-69.1026011379999,-20.719411863999937],[-69.11014723399995,-20.72046850399994],[-69.1182046749999,-20.724459101999912],[-69.1295135599999,-20.722889210999938],[-69.13504852199992,-20.724748646999956],[-69.13982915299994,-20.724515771999904],[-69.15380700599991,-20.71785112899994],[-69.16019577799995,-20.71653013899993],[-69.16925091599995,-20.71877603899992],[-69.17404641399992,-20.72127632699994],[-69.18356520899994,-20.72120381299993],[-69.1922282029999,-20.72870955099995],[-69.19921918299991,-20.729672312999924],[-69.20667347499995,-20.72859886799995],[-69.21173529999993,-20.730471509999916],[-69.21560173599994,-20.734286926999914],[-69.22565692699993,-20.73627807999992],[-69.23218149899992,-20.736613839999904],[-69.24103279099995,-20.734848124999928],[-69.24794212499995,-20.726195857999926],[-69.2621728709999,-20.717657567999936],[-69.27021517599991,-20.71094410099994],[-69.27646925599993,-20.70949376199991],[-69.28881000099994,-20.709349998999926],[-69.29654999999991,-20.70651999899991],[-69.2975899999999,-20.704959998999925],[-69.30807999899992,-20.702969998999947],[-69.31471999999991,-20.703469998999935],[-69.33044999899994,-20.71341999899994],[-69.33942999899995,-20.713969999999904],[-69.35189999999994,-20.718959999999925],[-69.36636000099992,-20.72088999899995],[-69.37882999999994,-20.728799998999932],[-69.38886999899995,-20.730419998999935],[-69.39117000099992,-20.731860000999916],[-69.40140999899995,-20.732449999999915],[-69.40615999999994,-20.73093999899993],[-69.41777999899995,-20.73165999999992],[-69.44019999999995,-20.728869998999926],[-69.4531399999999,-20.73156999999992],[-69.45946999899991,-20.730809999999906],[-69.47505999999993,-20.734289177999926],[-69.47505998999992,-20.253207902999918],[-69.44298953299995,-20.253976284999908],[-69.4257399999999,-20.258479999999906],[-69.42039695299991,-20.25561188799992],[-69.4025732419999,-20.254699966999908],[-69.38620791199992,-20.256037085999935],[-69.3555970939999,-20.254103998999938],[-69.3307034799999,-20.247346510999932],[-69.29701246299993,-20.25082107299994],[-69.2792997379999,-20.246270414999913],[-69.25717357299993,-20.24337417399994],[-69.24668922399991,-20.24543885199995],[-69.23170999999991,-20.245909999999924],[-69.2246458059999,-20.243546592999905],[-69.21539405499993,-20.24360915899996],[-69.2025445779999,-20.24539121899994],[-69.19257755899991,-20.24939463599992],[-69.1858889049999,-20.25568742999991],[-69.17953999999992,-20.256739999999922],[-69.17077401499995,-20.264571185999955],[-69.1543309939999,-20.269569927999953],[-69.14318821799992,-20.270586476999938],[-69.13135509599994,-20.274964170999908],[-69.1236750729999,-20.27354413699993],[-69.11788421199992,-20.27739338799995],[-69.11525565699992,-20.284222434999947],[-69.11281810899993,-20.287127583999904],[-69.10882722699995,-20.28905927699992],[-69.10125888899995,-20.289613139999915],[-69.09277401899993,-20.287525999999957],[-69.0872221809999,-20.287614659999917],[-69.06751285899992,-20.29723712099991],[-69.06162999999992,-20.295129999999915],[-69.04926876699994,-20.29466510599991],[-69.04227969399994,-20.288539287999924],[-69.03317923199995,-20.291395998999917],[-69.02118079699994,-20.289093528999956],[-69.01755522799994,-20.283853206999936],[-69.01316516499992,-20.28163722699992],[-69.0093884879999,-20.27709020599991],[-69.00979861299993,-20.271917061999943],[-69.00701455299992,-20.25642855199993],[-68.99917666899995,-20.246440881999945],[-68.99209999999994,-20.24150999999995],[-68.98673098899991,-20.23562680799995],[-68.98195169399992,-20.22934356099995],[-68.98087518799991,-20.224334187999943],[-68.97587072899995,-20.21759017599993],[-68.96305417699995,-20.207959682999956],[-68.96147480299993,-20.204383804999907],[-68.96217111599992,-20.19520857899994],[-68.96553999999992,-20.187459992999948],[-68.96282000499991,-20.18274998699991],[-68.97026999999991,-20.178829999999948],[-68.98630032299991,-20.178013777999922],[-68.99079159399992,-20.172993857999927],[-68.9915242639999,-20.162869761999957],[-68.9975399999999,-20.149589999999932],[-68.9920793359999,-20.14555306299991],[-68.99254509699995,-20.14113610399994],[-68.99669999999992,-20.13686999999993],[-69.00121281899993,-20.126709406999908],[-69.00720881099994,-20.120236891999923],[-69.00907016999992,-20.11414008199995],[-69.00842500899995,-20.104831924999928],[-69.00655244899991,-20.100870794999935],[-68.99570724099993,-20.08916176999992],[-68.9836699459999,-20.081209976999958],[-68.98076000999993,-20.067880002999914],[-68.98084999999992,-20.05728999999991],[-68.97879368999992,-20.047903876999953],[-68.96985785899994,-20.025920611999936],[-68.96913399499994,-20.02001187199994],[-68.97158000099995,-20.00652999999994],[-68.97851563299992,-19.997272837999958],[-68.97961988799995,-19.99395480399994],[-68.97900257599991,-19.987798390999956],[-68.98241285699993,-19.981681109999954],[-68.9805755939999,-19.966089352999916],[-68.97900000599992,-19.962850002999915],[-68.98043156299991,-19.95483696699995],[-68.97858789199995,-19.937549089999948],[-68.98631413299995,-19.922687164999957],[-68.99252634999993,-19.92022832899994]]]}},{"type":"Feature","properties":{"cut":2102,"comuna":"MEJILLONES"},"geometry":{"type":"Polygon","coordinates":[[[-69.96458180299993,-22.425696135999942],[-70.26262504099992,-22.635986671999945],[-70.26831275499995,-22.641216534999955],[-70.27138853899993,-22.643084889999955],[-70.27866952799991,-22.643643544999918],[-70.28159671599991,-22.645015804999957],[-70.28209641799992,-22.646703777999903],[-70.28385228999991,-22.646144851999907],[-70.28663009699994,-22.64805352399992],[-70.28866733099994,-22.65529611599993],[-70.2903821079999,-22.65694321199993],[-70.28826846699991,-22.65683834099991],[-70.28884856999991,-22.660455809999917],[-70.28178924999992,-22.662009218999913],[-70.27964050199995,-22.666872876999946],[-70.28113026499994,-22.67339940799991],[-70.2787177909999,-22.67983524999994],[-70.28118635499993,-22.681930466999916],[-70.28105396299992,-22.68348010199992],[-70.28463121999994,-22.68579341399993],[-70.28207912599993,-22.68719038599994],[-70.2836449159999,-22.689395545999957],[-70.28198484399991,-22.68923678799996],[-70.28246805099991,-22.691345476999913],[-70.28137114499992,-22.69081895399995],[-70.2794457839999,-22.694266074999916],[-70.28411101199993,-22.70533427999993],[-70.28090019299992,-22.713208988999952],[-70.28065550699995,-22.718007032999935],[-70.28158883499992,-22.720379531999924],[-70.28532254299995,-22.72147406299996],[-70.2880591519999,-22.724215875999903],[-70.29005248699991,-22.73201260199994],[-70.28967286499994,-22.735181144999956],[-70.2930401239999,-22.738279331999934],[-70.29155752399993,-22.74053809199995],[-70.29201062899995,-22.749271361999945],[-70.29961760999993,-22.75509080899991],[-70.30108827899994,-22.758018216999915],[-70.30715249799994,-22.76166083299995],[-70.31002539899993,-22.76163728499995],[-70.31224164799994,-22.764355328999955],[-70.31260537199995,-22.766013202999943],[-70.3063998639999,-22.771431251999957],[-70.3049401099999,-22.775751482999908],[-70.30592987499995,-22.784378018999917],[-70.31104995099992,-22.790920366999956],[-70.31235995199995,-22.801490591999936],[-70.31533989399992,-22.80436078999992],[-70.31234010899993,-22.81082984199992],[-70.31161984499994,-22.823489586999926],[-70.30750996799992,-22.833309526999926],[-70.3039201009999,-22.837520768999923],[-70.30412001799994,-22.84236027499992],[-70.30179993299993,-22.844289526999944],[-70.2995500209999,-22.849700003999942],[-70.29715009899991,-22.860661828999923],[-70.29109012599992,-22.877320934999943],[-70.28825136799992,-22.894409869999947],[-70.28817949899991,-22.90812096399992],[-70.28930096599993,-22.91362586699995],[-70.29197695499994,-22.91818331199994],[-70.29455361999993,-22.919322930999954],[-70.29748936699991,-22.91812048999992],[-70.30385165699994,-22.922954398999934],[-70.30441662599992,-22.93004112099993],[-70.30766347299993,-22.93401425399992],[-70.30655207399991,-22.935878154999955],[-70.30676993599991,-22.942768979999926],[-70.30885362399994,-22.95830465499995],[-70.31029825899992,-22.95991394099991],[-70.31060187799994,-22.963271274999954],[-70.31325985399991,-22.967548431999944],[-70.31934986399995,-22.968148158999952],[-70.32118988099995,-22.97002048199994],[-70.32493518299992,-22.970726234999916],[-70.32510752699994,-22.976884130999906],[-70.32661008999992,-22.97818058999991],[-70.32940835099993,-22.99071291599995],[-70.33762011099992,-23.009649434999915],[-70.3469399629999,-23.025990014999934],[-70.36589987799994,-23.051021157999912],[-70.38418746199994,-23.068512575999932],[-70.38788868499995,-23.065874143999906],[-70.38622306199994,-23.06762542799993],[-70.38765949999993,-23.071513918999926],[-70.40550485199992,-23.083097013999918],[-70.41936436999993,-23.09017795299991],[-70.44180849299994,-23.096881227999916],[-70.46196403099992,-23.09994710199993],[-70.47342063699995,-23.099632846999953],[-70.48542630599991,-23.097468792999905],[-70.48678995599994,-23.090801378999913],[-70.49480094599994,-23.08236938999994],[-70.50162690899992,-23.071181184999944],[-70.50204888799993,-23.058024987999943],[-70.50002659899991,-23.054052889999923],[-70.49979997999992,-23.04675052099992],[-70.49791160599995,-23.044324759999938],[-70.50088235099992,-23.04168498899992],[-70.50212993699995,-23.033168004999936],[-70.5063101369999,-23.029149996999934],[-70.50784850799994,-23.025538371999914],[-70.51664376499991,-23.024622361999945],[-70.51978148199993,-23.032959475999917],[-70.51946171199995,-23.03667584199991],[-70.52403006799995,-23.04524091499991],[-70.52838995999991,-23.047149559999923],[-70.53520891599993,-23.047236269999928],[-70.53993609899993,-23.049462700999925],[-70.54428293899991,-23.04957083799991],[-70.54962880699992,-23.053719230999945],[-70.54990985799992,-23.05668008899994],[-70.55168788299994,-23.056943541999942],[-70.5506099559999,-23.059648959999947],[-70.5553789949999,-23.062211649999938],[-70.55736806599992,-23.062048691999905],[-70.55826524399993,-23.064079204999928],[-70.55578377199993,-23.065748860999918],[-70.55890717599993,-23.067209102999925],[-70.5574870829999,-23.069022377999943],[-70.5591746149999,-23.07091969499993],[-70.55852990299991,-23.07397104799992],[-70.56226933199991,-23.07390701299994],[-70.56678093599993,-23.081247186999917],[-70.57140816899994,-23.08206141499994],[-70.57405171899995,-23.084185592999916],[-70.57943010499991,-23.083679454999924],[-70.57958990799995,-23.087669538999933],[-70.57492319799991,-23.087051410999948],[-70.57537014999991,-23.091936956999916],[-70.57335482399992,-23.09453765899991],[-70.57410140499991,-23.096100081999907],[-70.57797788799991,-23.09694308199994],[-70.57926547999995,-23.099704345999953],[-70.57859906599992,-23.10102998499991],[-70.58027224299991,-23.10097739899993],[-70.58225959299995,-23.10517165899995],[-70.57898523099993,-23.107328416999906],[-70.5782681039999,-23.109622284999944],[-70.57959856799994,-23.11272360299995],[-70.57662860799991,-23.115619684999956],[-70.57210149999992,-23.116184570999906],[-70.57199694399992,-23.11987540599995],[-70.56811897499995,-23.122531961999925],[-70.56432005399995,-23.12967111499995],[-70.56590985699995,-23.14006391199996],[-70.57197021099995,-23.148070159999918],[-70.57390094499993,-23.156300397999928],[-70.5682227559999,-23.16187661799995],[-70.5650801349999,-23.167792170999917],[-70.56133175999992,-23.182685379999953],[-70.5621136979999,-23.183806627999957],[-70.56094772999995,-23.185227960999953],[-70.56168887099994,-23.18784300899995],[-70.56077949199994,-23.18966202599995],[-70.56526756499994,-23.19551932899992],[-70.56538676399992,-23.199096307999923],[-70.56801119099993,-23.20137596199993],[-70.56756274499992,-23.205036246999953],[-70.56999701899991,-23.20872751299993],[-70.57596822799991,-23.21090188599993],[-70.57798638299994,-23.208043396999926],[-70.57973422499992,-23.208016888999907],[-70.5831915839999,-23.212920055999916],[-70.58515567499995,-23.21365150999992],[-70.58546438899992,-23.215458370999954],[-70.59229376699994,-23.21620821999994],[-70.59338410099991,-23.220232426999928],[-70.5980859739999,-23.222596342999907],[-70.59540036299995,-23.225214172999927],[-70.59998627999994,-23.23929617099992],[-70.59940537999995,-23.240746303999913],[-70.60149595099995,-23.243782221999936],[-70.60012289499991,-23.24573042199995],[-70.60414031099992,-23.25084452899995],[-70.60321983499995,-23.253480022999952],[-70.60442037799993,-23.256744625999943],[-70.60230729299991,-23.257798416999947],[-70.60203637199993,-23.25936383599992],[-70.59634807799995,-23.260750275999953],[-70.5982821259999,-23.265525054999955],[-70.59800831899992,-23.269856037999944],[-70.60064993299994,-23.272791870999924],[-70.60476386099992,-23.27333293399994],[-70.6019833929999,-23.275263285999927],[-70.60169999399994,-23.277377776999913],[-70.60324371199994,-23.279431815999942],[-70.60260004699995,-23.285681325999917],[-70.60393239299992,-23.289468598999918],[-70.6026999799999,-23.293031269999915],[-70.60096070299994,-23.293934858999933],[-70.60167073299993,-23.296254715999908],[-70.60335823399993,-23.296333044999926],[-70.60122384399995,-23.29868369299993],[-70.60153986999995,-23.30304106099993],[-70.59841685399994,-23.30406930199996],[-70.59892807499995,-23.30697541199993],[-70.59637250999992,-23.307695692999914],[-70.59531714999991,-23.31165219199994],[-70.59357198799995,-23.311536909999916],[-70.59391001599994,-23.314180407999913],[-70.59102006199993,-23.31505865899993],[-70.5858300189999,-23.31984786499993],[-70.58509989799995,-23.323729418999903],[-70.58260713199991,-23.326264555999956],[-70.5843450779999,-23.32925520899994],[-70.58738974699992,-23.331154993999917],[-70.58626109399995,-23.332853324999917],[-70.58741985299991,-23.333252554999945],[-70.5870331189999,-23.334675759999925],[-70.59270014799995,-23.33644370199994],[-70.59575988899991,-23.342088866999916],[-70.59526017799993,-23.34967381599995],[-70.59913051599995,-23.35390887899996],[-70.5984024949999,-23.35632358999993],[-70.60127781599994,-23.35655105099994],[-70.6037281749999,-23.358992961999945],[-70.60669005299991,-23.359582221999915],[-70.54779999899995,-23.360849999999914],[-70.39834007899992,-23.29843212199995],[-70.18525000099993,-23.344440000999953],[-70.18827230099993,-23.343270085999904],[-70.18816312899992,-23.340801701999908],[-70.18539891299991,-23.338828692999925],[-70.18409692699993,-23.33511302599993],[-70.18482804099995,-23.332789481999953],[-70.18666083699992,-23.332168534999937],[-70.18665082099994,-23.328182455999922],[-70.18381649899993,-23.327331156999946],[-70.18265472599995,-23.324707154999942],[-70.18004074099991,-23.323815795999906],[-70.17986046599992,-23.31841756299991],[-70.18091206999992,-23.31651466099993],[-70.17723646399992,-23.311977740999907],[-70.17307010999991,-23.311747389999937],[-70.16979511399995,-23.30978439599994],[-70.16059107599995,-23.285176865999915],[-70.1513699429999,-23.276072161999934],[-70.1441860569999,-23.265506866999942],[-70.1373899589999,-23.254179240999918],[-70.13422527499995,-23.24010472899994],[-70.1287049259999,-23.23492940099993],[-70.1326310359999,-23.231253133999928],[-70.13136992199992,-23.23027755499993],[-70.13158407399993,-23.228266909999945],[-70.13509705299992,-23.226038031999906],[-70.13016643199995,-23.219526237999958],[-70.12910995099992,-23.215300314999922],[-70.13072084599992,-23.208623547999935],[-70.13290994899995,-23.206719978999956],[-70.13212948699993,-23.203426804999935],[-70.11963848499994,-23.205087990999914],[-70.11763100999991,-23.202188304999936],[-70.1176979249999,-23.198931734999917],[-70.11024796499993,-23.19384613199992],[-70.10311027699993,-23.182760410999947],[-70.10012136899991,-23.182849631999943],[-70.09615103099992,-23.186552307999932],[-70.0954372619999,-23.18913971899991],[-70.09302829299992,-23.189474298999926],[-70.08265633999991,-23.176403407999942],[-70.07910980199995,-23.174998175999917],[-70.07391267299994,-23.16576379199995],[-70.07087915499994,-23.153696638999918],[-70.06445523699995,-23.151020005999953],[-70.05931572499992,-23.14345592999996],[-70.05845511799993,-23.130432237999912],[-70.05702757999995,-23.12561429799996],[-70.05142895699993,-23.11903424299993],[-70.05128999899995,-23.114819999999952],[-70.04728017499991,-23.10814926899991],[-70.04266298399995,-23.104357371999924],[-70.04083395099991,-23.09793345299994],[-70.03840267599992,-23.09434230399995],[-70.03235794699992,-23.09048349199992],[-70.03282635799991,-23.08252050899995],[-70.03530224199994,-23.073910672999943],[-70.0315801289999,-23.066860767999913],[-70.0288783229999,-23.063761772999953],[-70.02229826799993,-23.06385099399995],[-70.01435759099991,-23.06048289799992],[-70.01375988399991,-23.057921122999915],[-70.01025341999991,-23.054795052999907],[-70.01000430999994,-23.049901806999912],[-70.00657948699995,-23.048035871999957],[-70.00557012399992,-23.045928706999916],[-70.00601790999991,-23.04112964099994],[-70.0092921609999,-23.03647542199991],[-70.00480125899992,-23.03100749899994],[-70.00326475999992,-23.022283961999904],[-70.0009338559999,-23.018513381999924],[-69.99898000999991,-23.006447524999942],[-69.99092467899993,-23.004527956999937],[-69.98780419399992,-22.99797248899995],[-69.9877328099999,-22.993318263999925],[-69.99224426799992,-22.982410813999934],[-69.9862051959999,-22.973744816999954],[-69.98357827099994,-22.959924907999948],[-69.97920005799995,-22.952941762999956],[-69.97912391999995,-22.945148454999924],[-69.9766683169999,-22.937496107999948],[-69.97726794099992,-22.925275196999905],[-69.97050075399994,-22.921449022999923],[-69.9672123389999,-22.912062525999943],[-69.96907783599994,-22.901640485999906],[-69.96686017799993,-22.89750022399994],[-69.96644631399994,-22.884231426999918],[-69.97068295499992,-22.87696094899991],[-69.9700199589999,-22.871591507999938],[-69.96605294999995,-22.868747769999914],[-69.96501093299992,-22.865520387999936],[-69.96345258999992,-22.84992130799992],[-69.95267671099992,-22.83912428499991],[-69.94924827799991,-22.831986294999922],[-69.9493154669999,-22.826218471999937],[-69.95213420599993,-22.818970917999934],[-69.95362766999995,-22.81781934199995],[-69.95472987599993,-22.807280523999907],[-69.95161163799992,-22.80164915699993],[-69.9516413899999,-22.798216516999958],[-69.94846588299993,-22.796446939999953],[-69.94615655799993,-22.784257320999927],[-69.93367000199993,-22.771800001999907],[-69.93277535699991,-22.755900659999952],[-69.93098187699991,-22.75223474099994],[-69.93500408499995,-22.744704918999957],[-69.9349898609999,-22.742613888999927],[-69.93249492299992,-22.738256546999935],[-69.9303582249999,-22.727406927999937],[-69.92577266899991,-22.714954556999942],[-69.9248907779999,-22.695322026999918],[-69.91660575799995,-22.67409249499991],[-69.91178926799995,-22.67076422699995],[-69.90670321199991,-22.663038247999907],[-69.90609516399991,-22.660160151999946],[-69.90356772399991,-22.65863429199993],[-69.89929773999995,-22.65274166599994],[-69.90052716699995,-22.64823630199993],[-69.89979382299992,-22.64257217499994],[-69.89848733899993,-22.639295982999954],[-69.89371009999991,-22.635149398999943],[-69.89903012699995,-22.625079395999933],[-69.90019242799991,-22.617439919999924],[-69.90287922899995,-22.610663557999942],[-69.90239643399991,-22.594113111999945],[-69.90850007899991,-22.57550210599993],[-69.90857000299991,-22.564002538999944],[-69.9095427499999,-22.56133678099991],[-69.91489016199995,-22.55641048399991],[-69.91745643099995,-22.55199221299995],[-69.91738194899995,-22.548862656999916],[-69.92204999899991,-22.540779999999927],[-69.91592349099994,-22.538681583999903],[-69.9197409169999,-22.529238235999912],[-69.9182054659999,-22.519577004999917],[-69.92055999999991,-22.50915999999995],[-69.91944067399993,-22.504109683999957],[-69.91994483499991,-22.495403332999956],[-69.91726999999992,-22.48614148699994],[-69.91725794999991,-22.476796700999955],[-69.9203371289999,-22.472122535999915],[-69.93405022899992,-22.470855831999927],[-69.94815802799991,-22.46135191399992],[-69.95574204999991,-22.45963151299992],[-69.9624939489999,-22.454248265999922],[-69.9660240689999,-22.446440594999956],[-69.96372463699993,-22.443410163999943],[-69.96657812899991,-22.433926348999933],[-69.96458180299993,-22.425696135999942]]]}},{"type":"Feature","properties":{"cut":2301,"comuna":"TOCOPILLA"},"geometry":{"type":"Polygon","coordinates":[[[-69.9403908999999,-21.422990540999933],[-69.94255888899994,-21.425366973999928],[-69.95211901199991,-21.425527578999947],[-69.95862901499993,-21.42821929699994],[-69.96052819599993,-21.430374250999932],[-69.96716091999991,-21.432269662999943],[-69.96930076199993,-21.43155540999993],[-69.9717713309999,-21.433081045999927],[-69.98301894799994,-21.434902947999944],[-69.98933167699994,-21.43319887499996],[-69.99618116599993,-21.437521727999922],[-69.99855081099992,-21.43694923299995],[-70.00716052399991,-21.438896290999935],[-70.01065074599995,-21.436188537999953],[-70.02093893299991,-21.43411664799993],[-70.02682944999992,-21.429201359999922],[-70.03252520399991,-21.429692209999928],[-70.0353442519999,-21.42664843299991],[-70.03981081099994,-21.424714604999906],[-70.04755065099994,-21.425741237999944],[-70.05827711799992,-21.430006745999947],[-70.0554899999999,-21.440009999999916],[-70.05818999999991,-21.444669999999917],[-70.0578999999999,-21.44656999999995],[-70.06164999999993,-21.45100999999994],[-70.06096999999994,-21.455949999999916],[-70.06443999999993,-21.457409999999925],[-70.06643999999994,-21.461179999999956],[-70.06735999999995,-21.468659999999943],[-70.07217999999995,-21.473409999999944],[-70.0742699999999,-21.479059999999947],[-70.07879999999994,-21.48207999999994],[-70.08119999999991,-21.486329999999953],[-70.08060999999992,-21.487649999999917],[-70.0818799999999,-21.489979999999946],[-70.0807299999999,-21.490919999999903],[-70.08173999999991,-21.492959999999925],[-70.08019999999993,-21.499579999999924],[-70.0778499999999,-21.503669999999943],[-70.0786799999999,-21.505139999999926],[-70.07312999999994,-21.509729999999934],[-70.07574999999991,-21.512349999999913],[-70.07198999999991,-21.517499999999927],[-70.07073999999994,-21.530469999999923],[-70.07469999999995,-21.538869999999918],[-70.07792999999992,-21.540059999999926],[-70.0824399999999,-21.544449999999927],[-70.08438999999993,-21.544119999999907],[-70.08897999999994,-21.552539999999908],[-70.09167999999994,-21.550979999999925],[-70.09345999999994,-21.552569999999946],[-70.09044999999992,-21.555639999999926],[-70.09091999999993,-21.557849999999917],[-70.08974999999992,-21.559169999999938],[-70.09078999999991,-21.564059999999927],[-70.0900299999999,-21.56585999999993],[-70.0927299999999,-21.56938999999994],[-70.09181999999993,-21.571359999999913],[-70.0928899999999,-21.57337999999993],[-70.09506999999991,-21.57295999999991],[-70.09610999999995,-21.575089999999932],[-70.09237999999993,-21.58552999999995],[-70.09453999999994,-21.592679999999916],[-70.09740999999991,-21.595009999999945],[-70.10379999999992,-21.609689999999944],[-70.10664999999995,-21.610259999999926],[-70.10790999999995,-21.613579999999956],[-70.11236999999994,-21.61453999999992],[-70.12090999999992,-21.621689999999944],[-70.12396999999993,-21.630399999999952],[-70.13477999999992,-21.634879999999953],[-70.13884999999993,-21.633639999999957],[-70.1406199999999,-21.63510999999994],[-70.1431399999999,-21.634219999999914],[-70.14637999999991,-21.636679999999956],[-70.14521999999994,-21.638319999999908],[-70.14528999999993,-21.64292999999992],[-70.14660999999995,-21.643709999999942],[-70.14674999999994,-21.64763999999991],[-70.15057999999993,-21.657009999999957],[-70.14964999999995,-21.661569999999926],[-70.15085999999991,-21.663249999999948],[-70.15141999999992,-21.684609999999907],[-70.15421999999995,-21.688299999999913],[-70.15277999999995,-21.695439999999905],[-70.14633999999995,-21.70611999999994],[-70.14544999999993,-21.70932999999991],[-70.14622999999995,-21.71345999999994],[-70.14468999999991,-21.718179999999904],[-70.1456399999999,-21.722669999999937],[-70.1488599999999,-21.72577999999993],[-70.14953999999994,-21.728369999999927],[-70.14953999999994,-21.73732999999993],[-70.15133999999995,-21.74102999999991],[-70.14933999999994,-21.74625999999995],[-70.15145732199994,-21.749397964999957],[-70.15445999999991,-21.748309999999947],[-70.15374999999995,-21.75365999999991],[-70.15572999999995,-21.756659999999954],[-70.15476999999993,-21.759489999999914],[-70.15830999999991,-21.76007999999996],[-70.1592599999999,-21.76240999999993],[-70.1569199999999,-21.76625999999993],[-70.1571899999999,-21.769579999999905],[-70.15544999999992,-21.770749999999907],[-70.14951999999994,-21.783319999999947],[-70.14748999999995,-21.785249999999905],[-70.1449199999999,-21.793459999999925],[-70.1445599999999,-21.801469999999938],[-70.14288999999991,-21.802469999999914],[-70.14314999999993,-21.80466999999993],[-70.14143999999993,-21.80621999999994],[-70.14184999999992,-21.80785999999995],[-70.14588999999995,-21.80896999999993],[-70.14705999999995,-21.81708999999995],[-70.14543999999995,-21.824919999999906],[-70.1433199999999,-21.82689999999991],[-70.14463999999992,-21.82863999999995],[-70.14311999999995,-21.833189999999945],[-70.14469999999994,-21.834209999999928],[-70.14601999999991,-21.84206999999992],[-70.14379999999994,-21.847729999999956],[-70.14861999999994,-21.85787999999991],[-70.14956999999993,-21.863929999999925],[-70.1487899999999,-21.86594999999994],[-70.15025999999995,-21.86812999999995],[-70.15072999999995,-21.873959999999954],[-70.15251999999992,-21.878649999999936],[-70.15749999999991,-21.884889999999928],[-70.16920999999991,-21.894169999999917],[-70.17077999999992,-21.893589999999904],[-70.17515999999995,-21.897869999999955],[-70.17836999999992,-21.899229999999932],[-70.18691999999993,-21.897539999999935],[-70.18837999999994,-21.899669999999958],[-70.19135999999992,-21.899489999999957],[-70.19071999999994,-21.903059999999925],[-70.18148999999994,-21.908279999999934],[-70.17918999999995,-21.912259999999947],[-70.17745999999994,-21.913069999999948],[-70.17930999999993,-21.916049999999927],[-70.17557999999991,-21.917989999999918],[-70.17228999999992,-21.92247999999995],[-70.17020999999994,-21.926749999999913],[-70.16987999999992,-21.931319999999914],[-70.17153999999994,-21.941979999999944],[-70.17583999999994,-21.953329999999937],[-70.17451999999992,-21.95724999999993],[-70.17504999999994,-21.96279999999996],[-70.17839999999995,-21.968429999999955],[-70.18718999999993,-21.975399999999922],[-70.18407999999994,-21.97562999999991],[-70.1828999999999,-21.97834999999992],[-70.18218999999993,-21.98858999999993],[-70.1838899999999,-21.996959999999945],[-70.19103999999993,-22.00833999899993],[-70.19504999999992,-22.009759998999925],[-70.19787999999994,-22.01338999999996],[-70.19580999899995,-22.01385999999991],[-70.19714999899992,-22.01649999999995],[-70.1962799989999,-22.021039998999925],[-70.19825999999995,-22.022629998999946],[-70.1949699999999,-22.024779999999907],[-70.19519999999994,-22.026379999999904],[-70.19781999899993,-22.028409998999905],[-70.1954600009999,-22.02875999999992],[-70.19455999999991,-22.03021999899994],[-70.1943757059999,-22.03434829799994],[-70.1962771179999,-22.036267063999958],[-70.19167475099994,-22.037316157999953],[-70.19220659599995,-22.040603871999906],[-70.19518610799992,-22.042166751999957],[-70.19296534199992,-22.043660532999922],[-70.19525583299992,-22.044556625999917],[-70.19344417199994,-22.046278701999938],[-70.19486980899995,-22.047485785999925],[-70.19353091599993,-22.04768409299993],[-70.19438250099995,-22.04855319899991],[-70.19276095899994,-22.048751473999914],[-70.19266535299994,-22.05037370599996],[-70.19079808799995,-22.05151885899994],[-70.18888246599994,-22.058869254999934],[-70.19321659099995,-22.06450435399995],[-70.19252409899991,-22.066318646999946],[-70.19575127299993,-22.068159642999944],[-70.19436444299993,-22.06836281099993],[-70.1956843769999,-22.07242961199995],[-70.1949837969999,-22.07862969799993],[-70.19623237999991,-22.082920845999922],[-70.19752347399992,-22.083255553999948],[-70.1966578119999,-22.083984535999946],[-70.19844404299994,-22.088126291999913],[-70.20381959199995,-22.092839340999944],[-70.2045765819999,-22.09190110399993],[-70.20803310699995,-22.093771441999934],[-70.20970835699995,-22.092382099999952],[-70.2096783149999,-22.093925209999952],[-70.21064304499993,-22.09455589299995],[-70.21071134899995,-22.093319444999906],[-70.21182034899994,-22.094858709999926],[-70.21419622799993,-22.09403885499995],[-70.21386611699995,-22.091868508999937],[-70.21434533799993,-22.093761110999935],[-70.21653457499991,-22.093751468999926],[-70.21688769699995,-22.094838490999905],[-70.21564481299993,-22.097953915999938],[-70.21356570499995,-22.09904845099993],[-70.2180030799999,-22.106879096999933],[-70.2140191339999,-22.11026062299993],[-70.2137739289999,-22.112894294999933],[-70.2162850009999,-22.117733856999905],[-70.21670157599993,-22.12427162399996],[-70.21818544299992,-22.125632218999954],[-70.21439059599993,-22.13156703599992],[-70.21730515099995,-22.138571577999926],[-70.21968717499993,-22.13953354599994],[-70.2207172869999,-22.14400472299991],[-70.22394999999995,-22.14954999999992],[-70.22533999899991,-22.16688999899992],[-70.23033999899991,-22.17092999999994],[-70.23122999999993,-22.173049999999932],[-70.23086999999992,-22.174579998999945],[-70.2282499989999,-22.174189999999953],[-70.2261999989999,-22.17613999999992],[-70.22352999899994,-22.18440999899991],[-70.22436999899992,-22.19061999899992],[-70.22596000099992,-22.19211999999993],[-70.22482999999994,-22.195449999999937],[-70.22937999899995,-22.20168999899994],[-70.22907999899991,-22.205339998999932],[-70.22547999999995,-22.209109998999907],[-70.22544999899992,-22.212449999999933],[-70.23102999999992,-22.222579998999947],[-70.22938999899992,-22.223179999999957],[-70.23118999999991,-22.226639999999918],[-70.22896999999995,-22.231049999999925],[-70.23284999899994,-22.23768999899994],[-70.23383999999993,-22.240689998999926],[-70.2330899989999,-22.24168999999995],[-70.24075999899992,-22.249909998999954],[-70.23860000099995,-22.251649998999937],[-70.23984999899994,-22.252559999999903],[-70.23878999899995,-22.253669999999943],[-70.23960999999991,-22.255189999999914],[-70.23590999899994,-22.25914999999992],[-70.2341699989999,-22.264589998999952],[-70.23506999999995,-22.26696999899991],[-70.23343999899993,-22.26902999999993],[-70.24171088499992,-22.281949622999946],[-70.24516110299993,-22.28064091999994],[-70.24763000099995,-22.285249998999916],[-70.24582999899991,-22.28537999899993],[-70.24563999899993,-22.287129998999944],[-70.24299999999994,-22.288619998999934],[-70.24387999899994,-22.292659999999955],[-70.23913999899992,-22.29493999999994],[-70.2379699999999,-22.303719998999952],[-70.23693999999995,-22.30397999899992],[-70.23815999999994,-22.30815999899994],[-70.2372299999999,-22.310960000999955],[-70.2396399989999,-22.313449998999943],[-70.23951999899992,-22.316469998999935],[-70.2467499999999,-22.323010000999943],[-70.24698999899994,-22.325749999999914],[-70.24922999899991,-22.324629999999956],[-70.25040999899994,-22.325429998999937],[-70.2505599989999,-22.329929998999944],[-70.24990999999994,-22.332529998999917],[-70.24887999999993,-22.332289998999954],[-70.24866999999995,-22.33576999999991],[-70.2507199989999,-22.33919999999995],[-70.24912999899993,-22.340909998999905],[-70.25214999899993,-22.34175999899992],[-70.24972999899995,-22.345339999999908],[-70.25522999899994,-22.35125999999991],[-70.25441999899994,-22.352559998999936],[-70.25675999999993,-22.356519998999943],[-70.25576999999993,-22.358109998999907],[-70.25660999999991,-22.361299999999915],[-70.2540899999999,-22.365479998999945],[-70.25519999999995,-22.366549998999915],[-70.24953999899992,-22.373159999999928],[-70.24469999999991,-22.376529998999956],[-70.2457100009999,-22.378779998999903],[-70.24468999899995,-22.38238999899994],[-70.24806999899994,-22.392729999999915],[-70.24958000099991,-22.395119998999917],[-70.25315999899993,-22.396189998999944],[-70.25227999999993,-22.398020000999907],[-70.25445999899995,-22.401829999999904],[-70.25415999899991,-22.405979998999953],[-70.25772999999992,-22.408279999999934],[-70.25758999899995,-22.411599998999918],[-70.25873999899994,-22.412789999999916],[-70.2635000009999,-22.413779998999928],[-70.26159999899994,-22.41566999899993],[-70.26176999899991,-22.418879999999945],[-70.26275999899991,-22.41906999999992],[-70.26158999899991,-22.419909998999913],[-70.26310999899994,-22.42014999999992],[-70.25684000099994,-22.423739999999952],[-70.25551000099995,-22.428109999999947],[-70.25900999999993,-22.432939998999927],[-70.2591399989999,-22.435859999999934],[-70.25680999999992,-22.43939999899993],[-70.25855999899994,-22.441079998999953],[-70.2587299999999,-22.44760999899995],[-70.26014999999995,-22.44954999899994],[-70.25913999999995,-22.450719999999933],[-70.26353999999992,-22.452309999999954],[-70.26309999999995,-22.45383999899991],[-70.26506999899993,-22.45545999999996],[-70.2666099999999,-22.461139999999943],[-70.25732999899992,-22.468899999999906],[-70.25425999899994,-22.47437999999994],[-70.25090999999992,-22.47583999999995],[-70.25070999899992,-22.477799998999956],[-70.24722999999994,-22.479079999999954],[-70.24311999999992,-22.483889998999928],[-70.23992999899991,-22.488989999999944],[-70.23886999899992,-22.49786999899993],[-70.23989999899993,-22.50069999899995],[-70.24311999899993,-22.501860000999955],[-70.24372999899992,-22.504279999999937],[-70.24646999999993,-22.504949998999905],[-70.24894999999992,-22.50807999999995],[-70.24545999999992,-22.51532999999995],[-70.24802999899993,-22.519159998999953],[-70.25031999899994,-22.51932999999991],[-70.2521999999999,-22.523309999999924],[-70.25006999999994,-22.530089999999916],[-70.25198999899993,-22.531129998999916],[-70.2509899989999,-22.531609998999954],[-70.25358999899993,-22.53669999999994],[-70.25366999999994,-22.54114999999996],[-70.2587499999999,-22.547479998999904],[-70.2614999999999,-22.547089999999912],[-70.2673299999999,-22.550160000999938],[-70.27098999899994,-22.548359999999946],[-70.27364999899993,-22.548749999999927],[-70.2735199999999,-22.55053999899991],[-70.26863999999995,-22.551029999999912],[-70.26835999899993,-22.552349998999944],[-70.26850999999994,-22.554739998999935],[-70.27125999999993,-22.557489999999916],[-70.27173999899992,-22.562589998999954],[-70.27915999999993,-22.569449998999914],[-70.28446999999994,-22.57134999999994],[-70.28052999899995,-22.573989999999924],[-70.27814999899994,-22.581579999999917],[-70.2810399999999,-22.586439999999925],[-70.2804799999999,-22.59044999999992],[-70.27772999899992,-22.594019999999944],[-70.27831999999995,-22.60119999899996],[-70.27192999999994,-22.60244999999992],[-70.2671099989999,-22.609389999999905],[-70.26742999899994,-22.614729999999952],[-70.26900999899993,-22.616879998999934],[-70.2687499999999,-22.622019998999917],[-70.2647199999999,-22.625239998999916],[-70.26469999999995,-22.630170000999954],[-70.26262504099992,-22.635986671999945],[-69.96454999999992,-22.42539999999991],[-69.96966028499992,-22.42051512799992],[-69.96853990399995,-22.416616276999946],[-69.97111499199991,-22.406275130999916],[-69.97068437299993,-22.40226513899995],[-69.97471001199995,-22.393734250999955],[-69.97444720099992,-22.390599654999903],[-69.97187257399992,-22.390544736999914],[-69.9735117319999,-22.386732826999946],[-69.97264541699991,-22.381915059999926],[-69.97781852899993,-22.374649415999954],[-69.97657268099994,-22.369693141999903],[-69.97809031199995,-22.359369131999927],[-69.9823937459999,-22.346968776999915],[-69.98146751799993,-22.344404476999955],[-69.97869248599994,-22.34262584499993],[-69.97703741299995,-22.33834000899992],[-69.96937380899993,-22.331105066999953],[-69.96660019899991,-22.32262715199994],[-69.96348135399995,-22.318088901999943],[-69.96404600699992,-22.314359494999906],[-69.96169986399991,-22.30566517299991],[-69.96207653899995,-22.301313242999925],[-69.9739511329999,-22.285386307999943],[-69.97180678199993,-22.279095853999934],[-69.97173979299993,-22.27467079899992],[-69.97459603999994,-22.26685640699992],[-69.97766197899995,-22.263429575999908],[-69.97639163999992,-22.261904990999938],[-69.97648086999993,-22.255599418999907],[-69.9743480539999,-22.25148734499993],[-69.96918782099993,-22.250741726999934],[-69.96613003099992,-22.248642940999957],[-69.95781079999995,-22.23216612199991],[-69.9504820599999,-22.228454162999924],[-69.9470556359999,-22.228644518999943],[-69.94039314499992,-22.234545582999942],[-69.93653841899993,-22.236258794999912],[-69.93458726099993,-22.235687723999945],[-69.93325476199993,-22.230024606999905],[-69.93149396099994,-22.22778791299993],[-69.90727104799993,-22.21969774599995],[-69.89228044399994,-22.20965642099992],[-69.87952653299993,-22.204183659999956],[-69.87638138699992,-22.20087766799992],[-69.8741965399999,-22.195712778999905],[-69.87172190099994,-22.18424377699995],[-69.87078412199992,-22.171939531999953],[-69.86854855099995,-22.167035824999914],[-69.86713512699993,-22.168174630999943],[-69.86476584799993,-22.167861253999945],[-69.86439606199991,-22.171352931999934],[-69.86132626999995,-22.174331606999942],[-69.85805779599991,-22.185297352999953],[-69.8550720739999,-22.18863019799994],[-69.85227393699995,-22.18895165099991],[-69.8492571939999,-22.18546057599991],[-69.84599311799991,-22.193085157999917],[-69.82855159099995,-22.193962230999944],[-69.8141211439999,-22.201012086999924],[-69.79558355299991,-22.19458863099993],[-69.78798961399991,-22.196362939999915],[-69.78124411399995,-22.19413404499994],[-69.7726437959999,-22.18908692599996],[-69.77093310999993,-22.185737193999955],[-69.77062328699992,-22.18289477499991],[-69.77383369599994,-22.17794559099991],[-69.77311992799991,-22.175242148999928],[-69.77415334099993,-22.17266418099996],[-69.77152060499992,-22.15608710799995],[-69.77636450599994,-22.148281587999918],[-69.77981596699993,-22.13317619499992],[-69.77913498599992,-22.123926257999926],[-69.78138357699993,-22.115038970999933],[-69.78199033899995,-22.103796017999912],[-69.77381689099991,-22.09415920099991],[-69.76028965499995,-22.088091574999908],[-69.75440911099992,-22.082671950999952],[-69.75473996399995,-22.07915001799995],[-69.7422143789999,-22.026686786999903],[-69.7881325379999,-21.95857778699991],[-69.78620144699994,-21.95159332399993],[-69.78309370599993,-21.94840416799991],[-69.78782279899991,-21.941279572999917],[-69.79052780699993,-21.939559904999953],[-69.7947789939999,-21.92456121999993],[-69.79765226299992,-21.922141112999952],[-69.79901930799991,-21.918812490999926],[-69.79768153099991,-21.913575625999954],[-69.80293005999994,-21.909258446999957],[-69.8055408969999,-21.901308825999934],[-69.81003362199993,-21.89956293499995],[-69.83002597899991,-21.896302964999904],[-69.83277241899992,-21.89212315599991],[-69.8434078969999,-21.888082649999944],[-69.84664016499994,-21.882073891999937],[-69.8474422999999,-21.877423991999933],[-69.85261287599991,-21.873509003999914],[-69.87191903999991,-21.86925034399991],[-69.88740251199994,-21.87105291499995],[-69.89805995499995,-21.87390716899995],[-69.90227436599992,-21.873042524999903],[-69.90420345799993,-21.870103120999943],[-69.83559337699995,-21.751981694999927],[-69.82940183799991,-21.55766220399994],[-69.8289043979999,-21.440581377999933],[-69.8317358839999,-21.442362200999924],[-69.84203503399993,-21.436732948999918],[-69.85303141599991,-21.439492298999937],[-69.85536333099992,-21.437248138999905],[-69.85812573099992,-21.43790968399992],[-69.86120887099992,-21.43684258099995],[-69.8633365039999,-21.43432955199995],[-69.8696762319999,-21.433508213999914],[-69.87347626799993,-21.436157172999913],[-69.88124391899993,-21.43687871499992],[-69.8844238069999,-21.434093336999922],[-69.89067840699994,-21.43160523499995],[-69.89941695699991,-21.430149695999944],[-69.90410602799994,-21.425140961999944],[-69.91238814499991,-21.429224419999912],[-69.91932362699993,-21.425603090999914],[-69.92472813799992,-21.426169113999947],[-69.93431894199995,-21.423763668999925],[-69.9403908999999,-21.422990540999933]]]}},{"type":"Feature","properties":{"cut":2302,"comuna":"MARÍA ELENA"},"geometry":{"type":"Polygon","coordinates":[[[-68.93596996899993,-21.43571042399992],[-68.86080999899991,-21.28511999999995],[-69.31306999999993,-21.398169999999936],[-69.55126560399992,-21.630609919999927],[-69.55328908399991,-21.626486635999925],[-69.55775221099992,-21.624936420999916],[-69.5569404119999,-21.62325167499995],[-69.55790257799993,-21.621713146999923],[-69.55916464899991,-21.62329883399991],[-69.56274856199991,-21.623162812999908],[-69.5633843299999,-21.620794117999935],[-69.56617957999993,-21.62072970899993],[-69.56690246199992,-21.615338253999937],[-69.57209845299991,-21.61251247599995],[-69.57259724199992,-21.60992975499994],[-69.57877362799991,-21.60563233499994],[-69.57922358499991,-21.599012659999914],[-69.5780329339999,-21.596418721999953],[-69.58310863899993,-21.592198277999955],[-69.58472152999991,-21.587516071999914],[-69.58668286799991,-21.586066210999945],[-69.58632433399993,-21.583621513999958],[-69.59435108199995,-21.572418565999953],[-69.5945966509999,-21.56811033799994],[-69.59725506399991,-21.566694786999903],[-69.5987985189999,-21.560495888999924],[-69.60500856599992,-21.55584767299996],[-69.60613844699992,-21.55355951899992],[-69.61059882499995,-21.551777965999918],[-69.61058279699995,-21.550188179999907],[-69.62586543999993,-21.545710656999915],[-69.6250739649999,-21.540419996999958],[-69.62804400399995,-21.53777737599995],[-69.62760488099991,-21.53485810199993],[-69.63322987599992,-21.531595758999913],[-69.62762365999993,-21.531592820999947],[-69.6260140199999,-21.528976171999943],[-69.62977472499995,-21.526045477999958],[-69.62964747399991,-21.52044531599995],[-69.6353601209999,-21.514840569999933],[-69.63587277099992,-21.50986075499992],[-69.64074952199991,-21.506158055999947],[-69.6393202029999,-21.499749322999946],[-69.6442710039999,-21.49912287099994],[-69.64983678199991,-21.495580625999935],[-69.65558689699992,-21.485505047999936],[-69.66189085399992,-21.481419599999924],[-69.66097706099993,-21.478750531999935],[-69.66489399299991,-21.474458630999948],[-69.6670459419999,-21.46210575099991],[-69.67734095499992,-21.460964599999954],[-69.6785692279999,-21.461740145999954],[-69.6838989179999,-21.458693783999934],[-69.68802572899995,-21.458916306999924],[-69.6885703339999,-21.454161479999925],[-69.69372146899991,-21.450454228999945],[-69.69584881199995,-21.45076361799994],[-69.69752189999991,-21.452872251999906],[-69.7011330329999,-21.45318885599994],[-69.70151171599991,-21.455221412999947],[-69.70643446399993,-21.453123173999927],[-69.70770144599993,-21.449989772999913],[-69.71178255799992,-21.45045750999992],[-69.7133389569999,-21.452508611999917],[-69.71852332599991,-21.450448501999915],[-69.7227500589999,-21.45202772999994],[-69.72532869499992,-21.448537124999916],[-69.7285029489999,-21.44950332399992],[-69.73230842299995,-21.446112444999926],[-69.7342976079999,-21.44744254999995],[-69.73490112999991,-21.44444178799995],[-69.7381654799999,-21.44440762599993],[-69.74707098199991,-21.43767898099992],[-69.7548592679999,-21.43383794999994],[-69.75616014999991,-21.430847583999935],[-69.75583514399995,-21.42778536299994],[-69.76258099899991,-21.425403814999925],[-69.76424648299991,-21.42040226799992],[-69.76697806899995,-21.42068551199992],[-69.7681335229999,-21.423309592999942],[-69.7717429349999,-21.425160165999955],[-69.77683339099991,-21.42617600999995],[-69.7798161369999,-21.43092841899994],[-69.78205949599993,-21.432052123999938],[-69.78238992399992,-21.433475296999916],[-69.77895113999995,-21.437644569999918],[-69.7810336739999,-21.440699921999908],[-69.7876638109999,-21.437388644999942],[-69.79150672199995,-21.440214607999906],[-69.7962819679999,-21.438381739999954],[-69.8017944099999,-21.440545121999946],[-69.8094616379999,-21.439675717999933],[-69.81862951099993,-21.436483106999958],[-69.82327279499992,-21.439964604999943],[-69.8263372319999,-21.43919250899995],[-69.8289043979999,-21.440581377999933],[-69.82940183799991,-21.55766220399994],[-69.83559337699995,-21.751981694999927],[-69.90420345799993,-21.870103120999943],[-69.90227436599992,-21.873042524999903],[-69.89805995499995,-21.87390716899995],[-69.88740251199994,-21.87105291499995],[-69.87191903999991,-21.86925034399991],[-69.85261287599991,-21.873509003999914],[-69.8474422999999,-21.877423991999933],[-69.84664016499994,-21.882073891999937],[-69.8434078969999,-21.888082649999944],[-69.83277241899992,-21.89212315599991],[-69.83002597899991,-21.896302964999904],[-69.81003362199993,-21.89956293499995],[-69.8055408969999,-21.901308825999934],[-69.80293005999994,-21.909258446999957],[-69.79768153099991,-21.913575625999954],[-69.79901930799991,-21.918812490999926],[-69.79765226299992,-21.922141112999952],[-69.7947789939999,-21.92456121999993],[-69.79052780699993,-21.939559904999953],[-69.78782279899991,-21.941279572999917],[-69.78309370599993,-21.94840416799991],[-69.78620144699994,-21.95159332399993],[-69.7881325379999,-21.95857778699991],[-69.7422143789999,-22.026686786999903],[-69.75473996399995,-22.07915001799995],[-69.75440911099992,-22.082671950999952],[-69.76028965499995,-22.088091574999908],[-69.77381689099991,-22.09415920099991],[-69.78199033899995,-22.103796017999912],[-69.78138357699993,-22.115038970999933],[-69.77913498599992,-22.123926257999926],[-69.77981596699993,-22.13317619499992],[-69.77636450599994,-22.148281587999918],[-69.77152060499992,-22.15608710799995],[-69.77415334099993,-22.17266418099996],[-69.77311992799991,-22.175242148999928],[-69.77383369599994,-22.17794559099991],[-69.77062328699992,-22.18289477499991],[-69.7726437959999,-22.18908692599996],[-69.78124411399995,-22.19413404499994],[-69.78798961399991,-22.196362939999915],[-69.79558355299991,-22.19458863099993],[-69.8141211439999,-22.201012086999924],[-69.82855159099995,-22.193962230999944],[-69.84599311799991,-22.193085157999917],[-69.8492571939999,-22.18546057599991],[-69.85227393699995,-22.18895165099991],[-69.8550720739999,-22.18863019799994],[-69.85805779599991,-22.185297352999953],[-69.86132626999995,-22.174331606999942],[-69.86439606199991,-22.171352931999934],[-69.86476584799993,-22.167861253999945],[-69.86713512699993,-22.168174630999943],[-69.86854855099995,-22.167035824999914],[-69.87078412199992,-22.171939531999953],[-69.87172190099994,-22.18424377699995],[-69.8741965399999,-22.195712778999905],[-69.87638138699992,-22.20087766799992],[-69.87952653299993,-22.204183659999956],[-69.89228044399994,-22.20965642099992],[-69.90727104799993,-22.21969774599995],[-69.93149396099994,-22.22778791299993],[-69.93325476199993,-22.230024606999905],[-69.93458726099993,-22.235687723999945],[-69.93653841899993,-22.236258794999912],[-69.94039314499992,-22.234545582999942],[-69.9470556359999,-22.228644518999943],[-69.9504820599999,-22.228454162999924],[-69.95662106899994,-22.231404693999934],[-69.96214141899992,-22.239018968999915],[-69.96613003099992,-22.248642940999957],[-69.96918782099993,-22.250741726999934],[-69.9743480539999,-22.25148734499993],[-69.97648086999993,-22.255599418999907],[-69.97639163999992,-22.261904990999938],[-69.97766197899995,-22.263429575999908],[-69.97459603999994,-22.26685640699992],[-69.97173979299993,-22.27467079899992],[-69.97180678199993,-22.279095853999934],[-69.9739511329999,-22.285386307999943],[-69.96313213099995,-22.299652201999947],[-69.96178594299994,-22.30339525599993],[-69.96409700799995,-22.314717163999944],[-69.96348135399995,-22.318088901999943],[-69.96660019899991,-22.32262715199994],[-69.96894175599994,-22.33021610299994],[-69.97703741299995,-22.33834000899992],[-69.97869248599994,-22.34262584499993],[-69.98146751799993,-22.344404476999955],[-69.9823937459999,-22.346968776999915],[-69.97809031199995,-22.359369131999927],[-69.97657268099994,-22.369693141999903],[-69.97781852899993,-22.374649415999954],[-69.97264541699991,-22.381915059999926],[-69.9735117319999,-22.386732826999946],[-69.97187257399992,-22.390544736999914],[-69.97444720099992,-22.390599654999903],[-69.97471001199995,-22.393734250999955],[-69.97068437299993,-22.40226513899995],[-69.97111499199991,-22.406275130999916],[-69.96853990399995,-22.416616276999946],[-69.96966028499992,-22.42051512799992],[-69.96454999999992,-22.42539999999991],[-69.96657812899991,-22.433926348999933],[-69.96372463699993,-22.443410163999943],[-69.96577531499992,-22.444811598999934],[-69.96584375599991,-22.44781019699991],[-69.96310616599993,-22.453540027999907],[-69.95574204999991,-22.45963151299992],[-69.94815802799991,-22.46135191399992],[-69.93405022899992,-22.470855831999927],[-69.9203371289999,-22.472122535999915],[-69.91725794999991,-22.476796700999955],[-69.91726999999992,-22.48614148699994],[-69.91994483499991,-22.495403332999956],[-69.91944067399993,-22.504109683999957],[-69.92055999999991,-22.50915999999995],[-69.9182054659999,-22.519577004999917],[-69.9197409169999,-22.529238235999912],[-69.91592349099994,-22.538681583999903],[-69.92204999899991,-22.540779999999927],[-69.91738194899995,-22.548862656999916],[-69.91745643099995,-22.55199221299995],[-69.91489016199995,-22.55641048399991],[-69.9095427499999,-22.56133678099991],[-69.90857000299991,-22.564002538999944],[-69.90850007899991,-22.57550210599993],[-69.90239643399991,-22.594113111999945],[-69.90287922899995,-22.610663557999942],[-69.90019242799991,-22.617439919999924],[-69.89903012699995,-22.625079395999933],[-69.89371009999991,-22.635149398999943],[-69.89848733899993,-22.639295982999954],[-69.89979382299992,-22.64257217499994],[-69.90052716699995,-22.64823630199993],[-69.89929773999995,-22.65274166599994],[-69.90356772399991,-22.65863429199993],[-69.90609516399991,-22.660160151999946],[-69.90670321199991,-22.663038247999907],[-69.91178926799995,-22.67076422699995],[-69.91660575799995,-22.67409249499991],[-69.9248907779999,-22.695322026999918],[-69.92577266899991,-22.714954556999942],[-69.9303582249999,-22.727406927999937],[-69.93249492299992,-22.738256546999935],[-69.9349898609999,-22.742613888999927],[-69.93500408499995,-22.744704918999957],[-69.93098187699991,-22.75223474099994],[-69.93277535699991,-22.755900659999952],[-69.93367000199993,-22.771800001999907],[-69.94615655799993,-22.784257320999927],[-69.94846588299993,-22.796446939999953],[-69.95218547699994,-22.799360433999937],[-69.95161163799992,-22.80164915699993],[-69.95472987599993,-22.807280523999907],[-69.95362766999995,-22.81781934199995],[-69.95213420599993,-22.818970917999934],[-69.9493154669999,-22.826218471999937],[-69.94924827799991,-22.831986294999922],[-69.95267671099992,-22.83912428499991],[-69.96345258999992,-22.84992130799992],[-69.96501093299992,-22.865520387999936],[-69.96605294999995,-22.868747769999914],[-69.9700199589999,-22.871591507999938],[-69.83155999999991,-22.870609999999942],[-69.5334898829999,-22.880708709999908],[-69.19172969699991,-22.576541815999917],[-69.14611014699994,-22.451898575999905],[-69.16451008999991,-22.34118150799992],[-69.17485337599993,-22.22660317099991],[-68.9312697599999,-21.827240065999945],[-68.99317998799995,-21.635930741999914],[-68.93596996899993,-21.43571042399992]]]}}]}