{"type":"FeatureCollection","features":[{"type":"Feature","properties":{"nombre":"San Martín","jerarquia":5},"geometry":{"type":"LineString","coordinates":[[-70.2055,-22.09541],[-70.20554,-22.09538]]}},{"type":"Feature","properties":{"nombre":"San Martín","jerarquia":5},"geometry":{"type":"LineString","coordinates":[[-70.20554,-22.09538],[-70.20582,-22.09509],[-70.20593,-22.09491],[-70.20631,-22.09456],[-70.2064,-22.09445],[-70.20639,-22.09435]]}},{"type":"Feature","properties":{"nombre":"Ruta 24","jerarquia":2},"geometry":{"type":"LineString","coordinates":[[-70.18464,-22.08198],[-70.18382,-22.08244]]}},{"type":"Feature","properties":{"nombre":"","jerarquia":2},"geometry":{"type":"LineString","coordinates":[[-70.18382,-22.08244],[-70.18382,-22.08264]]}},{"type":"Feature","properties":{"nombre":"","jerarquia":2},"geometry":{"type":"LineString","coordinates":[[-70.18382,-22.08264],[-70.1839,-22.08274]]}},{"type":"Feature","properties":{"nombre":"Ruta 24","jerarquia":2},"geometry":{"type":"LineString","coordinates":[[-70.18464,-22.08198],[-70.18573,-22.08127],[-70.18607,-22.08098],[-70.18636,-22.08064],[-70.18666,-22.08002],[-70.18676,-22.07957],[-70.18689,-22.07855],[-70.18702,-22.07819],[-70.1872,-22.07784]]}},{"type":"Feature","properties":{"nombre":"Ruta 24","jerarquia":2},"geometry":{"type":"LineString","coordinates":[[-70.1872,-22.07784],[-70.1877,-22.07724],[-70.1896,-22.07569],[-70.19037,-22.07519],[-70.1911,-22.07493]]}},{"type":"Feature","properties":{"nombre":"18 de Septiembre","jerarquia":3},"geometry":{"type":"LineString","coordinates":[[-70.19409,-22.08763],[-70.19454,-22.08786]]}},{"type":"Feature","properties":{"nombre":"18 de Septiembre","jerarquia":3},"geometry":{"type":"LineString","coordinates":[[-70.19454,-22.08786],[-70.19499,-22.0881]]}},{"type":"Feature","properties":{"nombre":"18 de Septiembre","jerarquia":3},"geometry":{"type":"LineString","coordinates":[[-70.19499,-22.0881],[-70.19513,-22.08819]]}},{"type":"Feature","properties":{"nombre":"18 de Septiembre","jerarquia":3},"geometry":{"type":"LineString","coordinates":[[-70.19513,-22.08819],[-70.19584,-22.08856]]}},{"type":"Feature","properties":{"nombre":"18 de Septiembre","jerarquia":3},"geometry":{"type":"LineString","coordinates":[[-70.19584,-22.08856],[-70.19596,-22.08863]]}},{"type":"Feature","properties":{"nombre":"Alexis Sánchez","jerarquia":5},"geometry":{"type":"LineString","coordinates":[[-70.19093,-22.08394],[-70.19108,-22.08388],[-70.19186,-22.08448],[-70.19234,-22.08477]]}},{"type":"Feature","properties":{"nombre":"Alexis Sánchez","jerarquia":5},"geometry":{"type":"LineString","coordinates":[[-70.19234,-22.08477],[-70.19283,-22.08497]]}},{"type":"Feature","properties":{"nombre":"Alexis Sánchez","jerarquia":5},"geometry":{"type":"LineString","coordinates":[[-70.19283,-22.08497],[-70.19384,-22.08541]]}},{"type":"Feature","properties":{"nombre":"Avenida Arturo Prat","jerarquia":2},"geometry":{"type":"LineString","coordinates":[[-70.21224,-22.11109],[-70.21212,-22.11164],[-70.21216,-22.11232]]}},{"type":"Feature","properties":{"nombre":"Avenida Arturo Prat","jerarquia":2},"geometry":{"type":"LineString","coordinates":[[-70.21368,-22.11535],[-70.21353,-22.11511]]}},{"type":"Feature","properties":{"nombre":"Sargento Aldea","jerarquia":5},"geometry":{"type":"LineString","coordinates":[[-70.2062,-22.09609],[-70.20549,-22.09687]]}},{"type":"Feature","properties":{"nombre":"Barros Arana","jerarquia":5},"geometry":{"type":"LineString","coordinates":[[-70.2005,-22.09079],[-70.20208,-22.09201],[-70.20257,-22.09289],[-70.20319,-22.09337]]}},{"type":"Feature","properties":{"nombre":"18 de Septiembre","jerarquia":3},"geometry":{"type":"LineString","coordinates":[[-70.19588,-22.0891],[-70.19496,-22.0884]]}},{"type":"Feature","properties":{"nombre":"18 de Septiembre","jerarquia":3},"geometry":{"type":"LineString","coordinates":[[-70.19496,-22.0884],[-70.19411,-22.08781]]}},{"type":"Feature","properties":{"nombre":"Teniente Merino","jerarquia":2},"geometry":{"type":"LineString","coordinates":[[-70.19612,-22.08858],[-70.19615,-22.08859]]}},{"type":"Feature","properties":{"nombre":"Teniente Merino","jerarquia":2},"geometry":{"type":"LineString","coordinates":[[-70.19615,-22.08859],[-70.19623,-22.08868],[-70.19622,-22.08876]]}},{"type":"Feature","properties":{"nombre":"Teniente Merino","jerarquia":2},"geometry":{"type":"LineString","coordinates":[[-70.19622,-22.08876],[-70.19612,-22.08885]]}},{"type":"Feature","properties":{"nombre":"Teniente Merino","jerarquia":2},"geometry":{"type":"LineString","coordinates":[[-70.19612,-22.08885],[-70.19607,-22.08885]]}},{"type":"Feature","properties":{"nombre":"Teniente Merino","jerarquia":2},"geometry":{"type":"LineString","coordinates":[[-70.19607,-22.08885],[-70.19596,-22.08879]]}},{"type":"Feature","properties":{"nombre":"Teniente Merino","jerarquia":2},"geometry":{"type":"LineString","coordinates":[[-70.19596,-22.08879],[-70.19596,-22.08863]]}},{"type":"Feature","properties":{"nombre":"Teniente Merino","jerarquia":2},"geometry":{"type":"LineString","coordinates":[[-70.19596,-22.08863],[-70.19599,-22.0886]]}},{"type":"Feature","properties":{"nombre":"Teniente Merino","jerarquia":2},"geometry":{"type":"LineString","coordinates":[[-70.19599,-22.0886],[-70.19612,-22.08858]]}},{"type":"Feature","properties":{"nombre":"18 de Septiembre","jerarquia":3},"geometry":{"type":"LineString","coordinates":[[-70.19411,-22.08781],[-70.19372,-22.08761]]}},{"type":"Feature","properties":{"nombre":"18 de Septiembre","jerarquia":3},"geometry":{"type":"LineString","coordinates":[[-70.19372,-22.08761],[-70.19342,-22.08746]]}},{"type":"Feature","properties":{"nombre":"18 de Septiembre","jerarquia":3},"geometry":{"type":"LineString","coordinates":[[-70.19342,-22.08746],[-70.19307,-22.08728]]}},{"type":"Feature","properties":{"nombre":"18 de Septiembre","jerarquia":3},"geometry":{"type":"LineString","coordinates":[[-70.19307,-22.08728],[-70.19204,-22.08674]]}},{"type":"Feature","properties":{"nombre":"Colón","jerarquia":4},"geometry":{"type":"LineString","coordinates":[[-70.20105,-22.09186],[-70.20029,-22.09266]]}},{"type":"Feature","properties":{"nombre":"Bolívar","jerarquia":5},"geometry":{"type":"LineString","coordinates":[[-70.20281,-22.09331],[-70.20206,-22.09411]]}},{"type":"Feature","properties":{"nombre":"Bolívar","jerarquia":5},"geometry":{"type":"LineString","coordinates":[[-70.20206,-22.09411],[-70.20121,-22.095]]}},{"type":"Feature","properties":{"nombre":"Bolívar","jerarquia":5},"geometry":{"type":"LineString","coordinates":[[-70.20121,-22.095],[-70.20037,-22.09589]]}},{"type":"Feature","properties":{"nombre":"Ruta B-160","jerarquia":5},"geometry":{"type":"LineString","coordinates":[[-70.20185,-22.09713],[-70.20141,-22.09727],[-70.20129,-22.09734],[-70.20128,-22.09741]]}},{"type":"Feature","properties":{"nombre":"Ruta B-160","jerarquia":5},"geometry":{"type":"LineString","coordinates":[[-70.20128,-22.09741],[-70.20131,-22.09763]]}},{"type":"Feature","properties":{"nombre":"Ruta B-160","jerarquia":5},"geometry":{"type":"LineString","coordinates":[[-70.20131,-22.09763],[-70.20132,-22.09778],[-70.2011,-22.0978]]}},{"type":"Feature","properties":{"nombre":"Ruta B-160","jerarquia":5},"geometry":{"type":"LineString","coordinates":[[-70.2011,-22.0978],[-70.20102,-22.09795],[-70.20086,-22.09794],[-70.19855,-22.09729],[-70.19813,-22.09703],[-70.19807,-22.09704],[-70.19807,-22.09711],[-70.19835,-22.09729],[-70.19946,-22.09824],[-70.20011,-22.09873],[-70.20012,-22.0988],[-70.20006,-22.09882],[-70.19988,-22.09871],[-70.19943,-22.09861],[-70.1985,-22.09828],[-70.19773,-22.09791],[-70.1975,-22.09773],[-70.19705,-22.09757],[-70.19623,-22.09753],[-70.19576,-22.09745],[-70.19558,-22.09751],[-70.19524,-22.09809],[-70.19507,-22.0986],[-70.19484,-22.09949],[-70.19476,-22.09999],[-70.19477,-22.10067],[-70.19496,-22.10175],[-70.19493,-22.10353],[-70.19486,-22.1041],[-70.1947,-22.10457],[-70.19417,-22.10565],[-70.19353,-22.10653],[-70.19331,-22.10701],[-70.19288,-22.1082],[-70.19228,-22.10907],[-70.1913,-22.11025],[-70.19103,-22.11067],[-70.18999,-22.1126],[-70.18972,-22.11318],[-70.18934,-22.11425],[-70.18848,-22.11531],[-70.18841,-22.11553],[-70.18848,-22.11621],[-70.18841,-22.11653],[-70.18827,-22.11665],[-70.18763,-22.11689],[-70.18749,-22.11709],[-70.18752,-22.1177],[-70.18715,-22.11861],[-70.18702,-22.11909],[-70.187,-22.11944],[-70.18705,-22.12],[-70.18718,-22.12071],[-70.18733,-22.12128],[-70.18788,-22.12265],[-70.18796,-22.12302],[-70.18796,-22.12326],[-70.18767,-22.12576],[-70.18743,-22.12648],[-70.18709,-22.12672],[-70.18682,-22.12744],[-70.18653,-22.12791],[-70.18569,-22.12898],[-70.18465,-22.13002],[-70.18416,-22.13088],[-70.18372,-22.13141],[-70.18318,-22.13219],[-70.18294,-22.13243],[-70.18224,-22.13292],[-70.18184,-22.13331],[-70.1797,-22.13597],[-70.17864,-22.13674],[-70.17767,-22.13783],[-70.17622,-22.13936],[-70.17491,-22.14051],[-70.17468,-22.14086],[-70.17424,-22.14215],[-70.17404,-22.14256],[-70.17362,-22.14314],[-70.17246,-22.1444],[-70.17241,-22.14472],[-70.17257,-22.1451],[-70.17297,-22.14566],[-70.17342,-22.14605],[-70.17366,-22.14648],[-70.17405,-22.14753],[-70.17441,-22.14917],[-70.17494,-22.15057],[-70.1752,-22.15106],[-70.17597,-22.15226],[-70.17639,-22.15331],[-70.17691,-22.15414],[-70.17716,-22.15504],[-70.17731,-22.1559],[-70.17731,-22.15609],[-70.17721,-22.15642],[-70.17646,-22.15704],[-70.17584,-22.15763],[-70.17538,-22.15827],[-70.17491,-22.15918],[-70.1747,-22.15986],[-70.17447,-22.16116],[-70.17472,-22.16273],[-70.17463,-22.16335],[-70.17449,-22.16388],[-70.17436,-22.16415]]}},{"type":"Feature","properties":{"nombre":"Teniente Merino","jerarquia":2},"geometry":{"type":"LineString","coordinates":[[-70.19616,-22.0868],[-70.19628,-22.08792],[-70.19627,-22.08812]]}},{"type":"Feature","properties":{"nombre":"Teniente Merino","jerarquia":2},"geometry":{"type":"LineString","coordinates":[[-70.19599,-22.0886],[-70.19612,-22.08836],[-70.19621,-22.08798],[-70.19598,-22.0861]]}},{"type":"Feature","properties":{"nombre":"Teniente Merino","jerarquia":2},"geometry":{"type":"LineString","coordinates":[[-70.19598,-22.0861],[-70.19587,-22.08527]]}},{"type":"Feature","properties":{"nombre":"Ruta 1","jerarquia":2},"geometry":{"type":"LineString","coordinates":[[-70.18355,-22.05006],[-70.18413,-22.04858],[-70.18427,-22.04731],[-70.18439,-22.04698],[-70.18524,-22.04529],[-70.18551,-22.04506],[-70.18587,-22.04494],[-70.1875,-22.04491],[-70.18777,-22.04476],[-70.18795,-22.04445],[-70.18802,-22.04327],[-70.18793,-22.04251],[-70.18778,-22.0419],[-70.18697,-22.03988],[-70.1869,-22.03943],[-70.18708,-22.03675],[-70.18719,-22.03639],[-70.18781,-22.03503],[-70.18789,-22.03468],[-70.18788,-22.03422],[-70.18767,-22.03301],[-70.1877,-22.03262],[-70.18837,-22.03033],[-70.18866,-22.02973],[-70.18901,-22.02932],[-70.19055,-22.02803],[-70.19075,-22.02767],[-70.19109,-22.02655],[-70.19127,-22.02628],[-70.19149,-22.02606],[-70.19257,-22.02531],[-70.19278,-22.02511],[-70.19287,-22.02494],[-70.19289,-22.02468],[-70.19275,-22.02414],[-70.19277,-22.02381],[-70.19289,-22.02337],[-70.19325,-22.02246],[-70.19343,-22.02164],[-70.19345,-22.02085],[-70.19333,-22.01958],[-70.19334,-22.01932],[-70.1937,-22.01821],[-70.19401,-22.01696],[-70.19397,-22.01661],[-70.1936,-22.01563],[-70.19365,-22.0148],[-70.19378,-22.01429],[-70.19405,-22.01367],[-70.19435,-22.01336],[-70.19507,-22.01293],[-70.1952,-22.01266],[-70.19519,-22.01243]]}},{"type":"Feature","properties":{"nombre":"18 de Septiembre","jerarquia":3},"geometry":{"type":"LineString","coordinates":[[-70.1917,-22.0864],[-70.19214,-22.08663]]}},{"type":"Feature","properties":{"nombre":"18 de Septiembre","jerarquia":3},"geometry":{"type":"LineString","coordinates":[[-70.19214,-22.08663],[-70.19306,-22.0871]]}},{"type":"Feature","properties":{"nombre":"18 de Septiembre","jerarquia":3},"geometry":{"type":"LineString","coordinates":[[-70.19306,-22.0871],[-70.19409,-22.08763]]}},{"type":"Feature","properties":{"nombre":"O'Higgins","jerarquia":3},"geometry":{"type":"LineString","coordinates":[[-70.19607,-22.08885],[-70.19588,-22.0891]]}},{"type":"Feature","properties":{"nombre":"Aníbal Pinto","jerarquia":5},"geometry":{"type":"LineString","coordinates":[[-70.1988,-22.09594],[-70.19952,-22.09518]]}},{"type":"Feature","properties":{"nombre":"Aníbal Pinto","jerarquia":5},"geometry":{"type":"LineString","coordinates":[[-70.19952,-22.09518],[-70.2003,-22.09433]]}},{"type":"Feature","properties":{"nombre":"Aníbal Pinto","jerarquia":5},"geometry":{"type":"LineString","coordinates":[[-70.2003,-22.09433],[-70.20117,-22.09338]]}},{"type":"Feature","properties":{"nombre":"21 de Mayo","jerarquia":5},"geometry":{"type":"LineString","coordinates":[[-70.20549,-22.09687],[-70.20472,-22.09625]]}},{"type":"Feature","properties":{"nombre":"21 de Mayo","jerarquia":5},"geometry":{"type":"LineString","coordinates":[[-70.20472,-22.09625],[-70.20383,-22.09554]]}},{"type":"Feature","properties":{"nombre":"21 de Mayo","jerarquia":5},"geometry":{"type":"LineString","coordinates":[[-70.20383,-22.09554],[-70.20295,-22.09483]]}},{"type":"Feature","properties":{"nombre":"21 de Mayo","jerarquia":5},"geometry":{"type":"LineString","coordinates":[[-70.20295,-22.09483],[-70.20206,-22.09411]]}},{"type":"Feature","properties":{"nombre":"21 de Mayo","jerarquia":4},"geometry":{"type":"LineString","coordinates":[[-70.20029,-22.09266],[-70.19943,-22.09197]]}},{"type":"Feature","properties":{"nombre":"21 de Mayo","jerarquia":4},"geometry":{"type":"LineString","coordinates":[[-70.19943,-22.09197],[-70.1985,-22.09122]]}},{"type":"Feature","properties":{"nombre":"21 de Mayo","jerarquia":4},"geometry":{"type":"LineString","coordinates":[[-70.1985,-22.09122],[-70.19763,-22.09053]]}},{"type":"Feature","properties":{"nombre":"21 de Mayo","jerarquia":4},"geometry":{"type":"LineString","coordinates":[[-70.19763,-22.09053],[-70.19676,-22.08982]]}},{"type":"Feature","properties":{"nombre":"21 de Mayo","jerarquia":4},"geometry":{"type":"LineString","coordinates":[[-70.19676,-22.08982],[-70.19588,-22.0891]]}},{"type":"Feature","properties":{"nombre":"Guillermo Matta","jerarquia":5},"geometry":{"type":"LineString","coordinates":[[-70.20037,-22.09589],[-70.19952,-22.09518]]}},{"type":"Feature","properties":{"nombre":"Guillermo Matta","jerarquia":5},"geometry":{"type":"LineString","coordinates":[[-70.19952,-22.09518],[-70.19862,-22.09444]]}},{"type":"Feature","properties":{"nombre":"Guillermo Matta","jerarquia":5},"geometry":{"type":"LineString","coordinates":[[-70.19862,-22.09444],[-70.19776,-22.09374]]}},{"type":"Feature","properties":{"nombre":"Guillermo Matta","jerarquia":5},"geometry":{"type":"LineString","coordinates":[[-70.19776,-22.09374],[-70.19686,-22.093]]}},{"type":"Feature","properties":{"nombre":"Guillermo Matta","jerarquia":5},"geometry":{"type":"LineString","coordinates":[[-70.19686,-22.093],[-70.19643,-22.09264]]}},{"type":"Feature","properties":{"nombre":"Guillermo Matta","jerarquia":5},"geometry":{"type":"LineString","coordinates":[[-70.19643,-22.09264],[-70.19604,-22.09233]]}},{"type":"Feature","properties":{"nombre":"Guillermo Matta","jerarquia":5},"geometry":{"type":"LineString","coordinates":[[-70.19604,-22.09233],[-70.19518,-22.09161]]}},{"type":"Feature","properties":{"nombre":"Guillermo Matta","jerarquia":5},"geometry":{"type":"LineString","coordinates":[[-70.19518,-22.09161],[-70.19474,-22.09126]]}},{"type":"Feature","properties":{"nombre":"Guillermo Matta","jerarquia":5},"geometry":{"type":"LineString","coordinates":[[-70.19474,-22.09126],[-70.1943,-22.09089]]}},{"type":"Feature","properties":{"nombre":"Guillermo Matta","jerarquia":5},"geometry":{"type":"LineString","coordinates":[[-70.1943,-22.09089],[-70.19349,-22.09022]]}},{"type":"Feature","properties":{"nombre":"Guillermo Matta","jerarquia":5},"geometry":{"type":"LineString","coordinates":[[-70.19349,-22.09022],[-70.19342,-22.09017]]}},{"type":"Feature","properties":{"nombre":"Guillermo Matta","jerarquia":5},"geometry":{"type":"LineString","coordinates":[[-70.19342,-22.09017],[-70.19308,-22.08989]]}},{"type":"Feature","properties":{"nombre":"Guillermo Matta","jerarquia":5},"geometry":{"type":"LineString","coordinates":[[-70.19308,-22.08989],[-70.19257,-22.08947]]}},{"type":"Feature","properties":{"nombre":"Guillermo Matta","jerarquia":5},"geometry":{"type":"LineString","coordinates":[[-70.19257,-22.08947],[-70.19183,-22.08886]]}},{"type":"Feature","properties":{"nombre":"Guillermo Matta","jerarquia":5},"geometry":{"type":"LineString","coordinates":[[-70.19183,-22.08886],[-70.19171,-22.08876]]}},{"type":"Feature","properties":{"nombre":"Guillermo Matta","jerarquia":5},"geometry":{"type":"LineString","coordinates":[[-70.19171,-22.08876],[-70.19083,-22.08804]]}},{"type":"Feature","properties":{"nombre":"Guillermo Matta","jerarquia":5},"geometry":{"type":"LineString","coordinates":[[-70.19083,-22.08804],[-70.18995,-22.08731]]}},{"type":"Feature","properties":{"nombre":"Guillermo Matta","jerarquia":5},"geometry":{"type":"LineString","coordinates":[[-70.18995,-22.08731],[-70.18906,-22.08658]]}},{"type":"Feature","properties":{"nombre":"Guillermo Matta","jerarquia":5},"geometry":{"type":"LineString","coordinates":[[-70.18906,-22.08658],[-70.18819,-22.08586]]}},{"type":"Feature","properties":{"nombre":"Guillermo Matta","jerarquia":5},"geometry":{"type":"LineString","coordinates":[[-70.18819,-22.08586],[-70.18741,-22.08522]]}},{"type":"Feature","properties":{"nombre":"Guillermo Matta","jerarquia":5},"geometry":{"type":"LineString","coordinates":[[-70.18741,-22.08522],[-70.18736,-22.08518]]}},{"type":"Feature","properties":{"nombre":"Guillermo Matta","jerarquia":5},"geometry":{"type":"LineString","coordinates":[[-70.18736,-22.08518],[-70.18704,-22.08492]]}},{"type":"Feature","properties":{"nombre":"Guillermo Matta","jerarquia":5},"geometry":{"type":"LineString","coordinates":[[-70.18704,-22.08492],[-70.18693,-22.08483]]}},{"type":"Feature","properties":{"nombre":"Guillermo Matta","jerarquia":5},"geometry":{"type":"LineString","coordinates":[[-70.18693,-22.08483],[-70.18682,-22.08474]]}},{"type":"Feature","properties":{"nombre":"Guillermo Matta","jerarquia":5},"geometry":{"type":"LineString","coordinates":[[-70.18682,-22.08474],[-70.1865,-22.08448]]}},{"type":"Feature","properties":{"nombre":"Guillermo Matta","jerarquia":5},"geometry":{"type":"LineString","coordinates":[[-70.1865,-22.08448],[-70.18564,-22.08377]]}},{"type":"Feature","properties":{"nombre":"21 de Mayo","jerarquia":5},"geometry":{"type":"LineString","coordinates":[[-70.20117,-22.09338],[-70.20029,-22.09266]]}},{"type":"Feature","properties":{"nombre":"O'Higgins","jerarquia":5},"geometry":{"type":"LineString","coordinates":[[-70.1943,-22.09089],[-70.19467,-22.09049]]}},{"type":"Feature","properties":{"nombre":"O'Higgins","jerarquia":5},"geometry":{"type":"LineString","coordinates":[[-70.19467,-22.09049],[-70.19503,-22.09008]]}},{"type":"Feature","properties":{"nombre":"O'Higgins","jerarquia":5},"geometry":{"type":"LineString","coordinates":[[-70.19503,-22.09008],[-70.1958,-22.08919]]}},{"type":"Feature","properties":{"nombre":"O'Higgins","jerarquia":5},"geometry":{"type":"LineString","coordinates":[[-70.1958,-22.08919],[-70.19588,-22.0891]]}},{"type":"Feature","properties":{"nombre":"Miraflores","jerarquia":5},"geometry":{"type":"LineString","coordinates":[[-70.18594,-22.08344],[-70.18591,-22.08346]]}},{"type":"Feature","properties":{"nombre":"Miraflores","jerarquia":5},"geometry":{"type":"LineString","coordinates":[[-70.18591,-22.08346],[-70.18586,-22.08352]]}},{"type":"Feature","properties":{"nombre":"Miraflores","jerarquia":5},"geometry":{"type":"LineString","coordinates":[[-70.18586,-22.08352],[-70.18584,-22.08354]]}},{"type":"Feature","properties":{"nombre":"Miraflores","jerarquia":5},"geometry":{"type":"LineString","coordinates":[[-70.18584,-22.08354],[-70.18576,-22.08363]]}},{"type":"Feature","properties":{"nombre":"Miraflores","jerarquia":5},"geometry":{"type":"LineString","coordinates":[[-70.18576,-22.08363],[-70.18564,-22.08377]]}},{"type":"Feature","properties":{"nombre":"Miraflores","jerarquia":5},"geometry":{"type":"LineString","coordinates":[[-70.18564,-22.08377],[-70.18561,-22.0838]]}},{"type":"Feature","properties":{"nombre":"Miraflores","jerarquia":5},"geometry":{"type":"LineString","coordinates":[[-70.18561,-22.0838],[-70.18529,-22.08416]]}},{"type":"Feature","properties":{"nombre":"Miraflores","jerarquia":5},"geometry":{"type":"LineString","coordinates":[[-70.18529,-22.08416],[-70.18518,-22.08429]]}},{"type":"Feature","properties":{"nombre":"Miraflores","jerarquia":5},"geometry":{"type":"LineString","coordinates":[[-70.18518,-22.08429],[-70.18493,-22.08457]]}},{"type":"Feature","properties":{"nombre":"Sucre","jerarquia":5},"geometry":{"type":"LineString","coordinates":[[-70.19503,-22.09008],[-70.19549,-22.09044]]}},{"type":"Feature","properties":{"nombre":"Sucre","jerarquia":5},"geometry":{"type":"LineString","coordinates":[[-70.19549,-22.09044],[-70.19592,-22.0908]]}},{"type":"Feature","properties":{"nombre":"Sucre","jerarquia":5},"geometry":{"type":"LineString","coordinates":[[-70.19592,-22.0908],[-70.19677,-22.0915]]}},{"type":"Feature","properties":{"nombre":"Sucre","jerarquia":5},"geometry":{"type":"LineString","coordinates":[[-70.19677,-22.0915],[-70.1975,-22.0921]]}},{"type":"Feature","properties":{"nombre":"Sucre","jerarquia":5},"geometry":{"type":"LineString","coordinates":[[-70.1975,-22.0921],[-70.19761,-22.09219]]}},{"type":"Feature","properties":{"nombre":"Sucre","jerarquia":5},"geometry":{"type":"LineString","coordinates":[[-70.19761,-22.09219],[-70.19851,-22.09291]]}},{"type":"Feature","properties":{"nombre":"Sucre","jerarquia":5},"geometry":{"type":"LineString","coordinates":[[-70.19851,-22.09291],[-70.1994,-22.09362]]}},{"type":"Feature","properties":{"nombre":"Sucre","jerarquia":5},"geometry":{"type":"LineString","coordinates":[[-70.1994,-22.09362],[-70.2003,-22.09433]]}},{"type":"Feature","properties":{"nombre":"Sucre","jerarquia":5},"geometry":{"type":"LineString","coordinates":[[-70.2003,-22.09433],[-70.20121,-22.095]]}},{"type":"Feature","properties":{"nombre":"Sucre","jerarquia":5},"geometry":{"type":"LineString","coordinates":[[-70.20121,-22.095],[-70.20216,-22.09568]]}},{"type":"Feature","properties":{"nombre":"Sucre","jerarquia":5},"geometry":{"type":"LineString","coordinates":[[-70.20216,-22.09568],[-70.20308,-22.09636]]}},{"type":"Feature","properties":{"nombre":"Sucre","jerarquia":5},"geometry":{"type":"LineString","coordinates":[[-70.20308,-22.09636],[-70.20384,-22.09695]]}},{"type":"Feature","properties":{"nombre":"Esmeralda","jerarquia":5},"geometry":{"type":"LineString","coordinates":[[-70.18493,-22.08457],[-70.18577,-22.08527]]}},{"type":"Feature","properties":{"nombre":"Esmeralda","jerarquia":5},"geometry":{"type":"LineString","coordinates":[[-70.18577,-22.08527],[-70.18606,-22.0855]]}},{"type":"Feature","properties":{"nombre":"Esmeralda","jerarquia":5},"geometry":{"type":"LineString","coordinates":[[-70.18606,-22.0855],[-70.18632,-22.08571]]}},{"type":"Feature","properties":{"nombre":"Esmeralda","jerarquia":5},"geometry":{"type":"LineString","coordinates":[[-70.18632,-22.08571],[-70.18662,-22.08596]]}},{"type":"Feature","properties":{"nombre":"Esmeralda","jerarquia":5},"geometry":{"type":"LineString","coordinates":[[-70.18662,-22.08596],[-70.18746,-22.08665]]}},{"type":"Feature","properties":{"nombre":"Esmeralda","jerarquia":5},"geometry":{"type":"LineString","coordinates":[[-70.18746,-22.08665],[-70.18833,-22.08736]]}},{"type":"Feature","properties":{"nombre":"Esmeralda","jerarquia":5},"geometry":{"type":"LineString","coordinates":[[-70.18833,-22.08736],[-70.18923,-22.0881]]}},{"type":"Feature","properties":{"nombre":"Esmeralda","jerarquia":5},"geometry":{"type":"LineString","coordinates":[[-70.18923,-22.0881],[-70.19009,-22.08881]]}},{"type":"Feature","properties":{"nombre":"Esmeralda","jerarquia":5},"geometry":{"type":"LineString","coordinates":[[-70.19009,-22.08881],[-70.19099,-22.08954]]}},{"type":"Feature","properties":{"nombre":"Esmeralda","jerarquia":5},"geometry":{"type":"LineString","coordinates":[[-70.19099,-22.08954],[-70.19185,-22.09025]]}},{"type":"Feature","properties":{"nombre":"Esmeralda","jerarquia":5},"geometry":{"type":"LineString","coordinates":[[-70.19185,-22.09025],[-70.1927,-22.09095]]}},{"type":"Feature","properties":{"nombre":"Esmeralda","jerarquia":5},"geometry":{"type":"LineString","coordinates":[[-70.1927,-22.09095],[-70.19361,-22.09169]]}},{"type":"Feature","properties":{"nombre":"Esmeralda","jerarquia":5},"geometry":{"type":"LineString","coordinates":[[-70.19361,-22.09169],[-70.19404,-22.09205]]}},{"type":"Feature","properties":{"nombre":"Esmeralda","jerarquia":5},"geometry":{"type":"LineString","coordinates":[[-70.19404,-22.09205],[-70.1944,-22.09234]]}},{"type":"Feature","properties":{"nombre":"Esmeralda","jerarquia":5},"geometry":{"type":"LineString","coordinates":[[-70.1944,-22.09234],[-70.19447,-22.0924]]}},{"type":"Feature","properties":{"nombre":"Esmeralda","jerarquia":5},"geometry":{"type":"LineString","coordinates":[[-70.19447,-22.0924],[-70.19534,-22.09311]]}},{"type":"Feature","properties":{"nombre":"Esmeralda","jerarquia":5},"geometry":{"type":"LineString","coordinates":[[-70.19534,-22.09311],[-70.19615,-22.09377]]}},{"type":"Feature","properties":{"nombre":"Esmeralda","jerarquia":5},"geometry":{"type":"LineString","coordinates":[[-70.19615,-22.09377],[-70.19677,-22.09428]]}},{"type":"Feature","properties":{"nombre":"Esmeralda","jerarquia":5},"geometry":{"type":"LineString","coordinates":[[-70.19677,-22.09428],[-70.19704,-22.0945]]}},{"type":"Feature","properties":{"nombre":"Esmeralda","jerarquia":5},"geometry":{"type":"LineString","coordinates":[[-70.19704,-22.0945],[-70.1979,-22.09521]]}},{"type":"Feature","properties":{"nombre":"Esmeralda","jerarquia":5},"geometry":{"type":"LineString","coordinates":[[-70.1979,-22.09521],[-70.1988,-22.09594]]}},{"type":"Feature","properties":{"nombre":"","jerarquia":2},"geometry":{"type":"LineString","coordinates":[[-70.19257,-22.07482],[-70.19245,-22.07467],[-70.19222,-22.07458]]}},{"type":"Feature","properties":{"nombre":"","jerarquia":2},"geometry":{"type":"LineString","coordinates":[[-70.19222,-22.07458],[-70.19206,-22.07458]]}},{"type":"Feature","properties":{"nombre":"","jerarquia":2},"geometry":{"type":"LineString","coordinates":[[-70.19206,-22.07458],[-70.19221,-22.07444],[-70.1923,-22.07426]]}},{"type":"Feature","properties":{"nombre":"","jerarquia":2},"geometry":{"type":"LineString","coordinates":[[-70.1923,-22.07426],[-70.19232,-22.07407]]}},{"type":"Feature","properties":{"nombre":"18 de Septiembre","jerarquia":3},"geometry":{"type":"LineString","coordinates":[[-70.1839,-22.08274],[-70.18448,-22.08288]]}},{"type":"Feature","properties":{"nombre":"Teniente Uribe","jerarquia":5},"geometry":{"type":"LineString","coordinates":[[-70.1915,-22.08562],[-70.19208,-22.08504]]}},{"type":"Feature","properties":{"nombre":"Teniente Uribe","jerarquia":5},"geometry":{"type":"LineString","coordinates":[[-70.19208,-22.08504],[-70.19234,-22.08477]]}},{"type":"Feature","properties":{"nombre":"Teniente Uribe","jerarquia":5},"geometry":{"type":"LineString","coordinates":[[-70.19234,-22.08477],[-70.19297,-22.08408]]}},{"type":"Feature","properties":{"nombre":"Teniente Uribe","jerarquia":5},"geometry":{"type":"LineString","coordinates":[[-70.19297,-22.08408],[-70.19364,-22.0834]]}},{"type":"Feature","properties":{"nombre":"Teniente Uribe","jerarquia":5},"geometry":{"type":"LineString","coordinates":[[-70.19364,-22.0834],[-70.19373,-22.0833]]}},{"type":"Feature","properties":{"nombre":"Teniente Uribe","jerarquia":5},"geometry":{"type":"LineString","coordinates":[[-70.19373,-22.0833],[-70.19406,-22.08295]]}},{"type":"Feature","properties":{"nombre":"Teniente Uribe","jerarquia":5},"geometry":{"type":"LineString","coordinates":[[-70.19406,-22.08295],[-70.19445,-22.08253]]}},{"type":"Feature","properties":{"nombre":"Teniente Uribe","jerarquia":5},"geometry":{"type":"LineString","coordinates":[[-70.19445,-22.08253],[-70.19484,-22.08211]]}},{"type":"Feature","properties":{"nombre":"Teniente Uribe","jerarquia":5},"geometry":{"type":"LineString","coordinates":[[-70.19484,-22.08211],[-70.19488,-22.08208]]}},{"type":"Feature","properties":{"nombre":"Teniente Uribe","jerarquia":5},"geometry":{"type":"LineString","coordinates":[[-70.19488,-22.08208],[-70.1949,-22.08206]]}},{"type":"Feature","properties":{"nombre":"Alexis Sánchez","jerarquia":5},"geometry":{"type":"LineString","coordinates":[[-70.19384,-22.08541],[-70.19395,-22.08546],[-70.19426,-22.08544]]}},{"type":"Feature","properties":{"nombre":"Alexis Sánchez","jerarquia":5},"geometry":{"type":"LineString","coordinates":[[-70.19426,-22.08544],[-70.19473,-22.08539]]}},{"type":"Feature","properties":{"nombre":"Alexis Sánchez","jerarquia":5},"geometry":{"type":"LineString","coordinates":[[-70.19473,-22.08539],[-70.19515,-22.08535]]}},{"type":"Feature","properties":{"nombre":"Alexis Sánchez","jerarquia":5},"geometry":{"type":"LineString","coordinates":[[-70.19515,-22.08535],[-70.19551,-22.08531]]}},{"type":"Feature","properties":{"nombre":"Alexis Sánchez","jerarquia":5},"geometry":{"type":"LineString","coordinates":[[-70.19551,-22.08531],[-70.19587,-22.08527]]}},{"type":"Feature","properties":{"nombre":"Alexis Sánchez","jerarquia":5},"geometry":{"type":"LineString","coordinates":[[-70.19587,-22.08527],[-70.19595,-22.08526]]}},{"type":"Feature","properties":{"nombre":"San Martín","jerarquia":5},"geometry":{"type":"LineString","coordinates":[[-70.20384,-22.09695],[-70.20358,-22.09716],[-70.20345,-22.0972]]}},{"type":"Feature","properties":{"nombre":"San Martín","jerarquia":5},"geometry":{"type":"LineString","coordinates":[[-70.20345,-22.0972],[-70.20323,-22.09722]]}},{"type":"Feature","properties":{"nombre":"San Martín","jerarquia":5},"geometry":{"type":"LineString","coordinates":[[-70.20323,-22.09722],[-70.20229,-22.09718]]}},{"type":"Feature","properties":{"nombre":"San Martín","jerarquia":5},"geometry":{"type":"LineString","coordinates":[[-70.20229,-22.09718],[-70.20185,-22.09713]]}},{"type":"Feature","properties":{"nombre":"","jerarquia":2},"geometry":{"type":"LineString","coordinates":[[-70.18935,-22.06901],[-70.18935,-22.06921]]}},{"type":"Feature","properties":{"nombre":"","jerarquia":2},"geometry":{"type":"LineString","coordinates":[[-70.18935,-22.06921],[-70.1894,-22.06937]]}},{"type":"Feature","properties":{"nombre":"Ruta 1","jerarquia":2},"geometry":{"type":"LineString","coordinates":[[-70.19123,-22.07175],[-70.19182,-22.07257]]}},{"type":"Feature","properties":{"nombre":"Ruta 1","jerarquia":2},"geometry":{"type":"LineString","coordinates":[[-70.19182,-22.07257],[-70.19219,-22.07347]]}},{"type":"Feature","properties":{"nombre":"Ruta 1","jerarquia":2},"geometry":{"type":"LineString","coordinates":[[-70.19219,-22.07347],[-70.19223,-22.07356]]}},{"type":"Feature","properties":{"nombre":"Ruta 1","jerarquia":2},"geometry":{"type":"LineString","coordinates":[[-70.19223,-22.07356],[-70.19231,-22.07379]]}},{"type":"Feature","properties":{"nombre":"Ruta 1","jerarquia":2},"geometry":{"type":"LineString","coordinates":[[-70.192,-22.07321],[-70.1916,-22.0724]]}},{"type":"Feature","properties":{"nombre":"Ruta 1","jerarquia":2},"geometry":{"type":"LineString","coordinates":[[-70.18752,-22.06719],[-70.18795,-22.06755],[-70.1884,-22.06807]]}},{"type":"Feature","properties":{"nombre":"Ruta 24","jerarquia":2},"geometry":{"type":"LineString","coordinates":[[-70.18314,-22.08261],[-70.18379,-22.08239],[-70.18464,-22.08198]]}},{"type":"Feature","properties":{"nombre":"Barros Arana","jerarquia":5},"geometry":{"type":"LineString","coordinates":[[-70.19673,-22.0852],[-70.1969,-22.08602]]}},{"type":"Feature","properties":{"nombre":"Alexis Sánchez","jerarquia":5},"geometry":{"type":"LineString","coordinates":[[-70.19595,-22.08526],[-70.19636,-22.08522]]}},{"type":"Feature","properties":{"nombre":"Alexis Sánchez","jerarquia":5},"geometry":{"type":"LineString","coordinates":[[-70.19636,-22.08522],[-70.19673,-22.0852]]}},{"type":"Feature","properties":{"nombre":"O'Higgins","jerarquia":3},"geometry":{"type":"LineString","coordinates":[[-70.19588,-22.0891],[-70.19595,-22.08885]]}},{"type":"Feature","properties":{"nombre":"O'Higgins","jerarquia":3},"geometry":{"type":"LineString","coordinates":[[-70.19595,-22.08885],[-70.19596,-22.08879]]}},{"type":"Feature","properties":{"nombre":"Ruta 24","jerarquia":2},"geometry":{"type":"LineString","coordinates":[[-70.13463,-22.09595],[-70.13485,-22.0959],[-70.13556,-22.09599],[-70.13585,-22.09594],[-70.13791,-22.09496],[-70.13822,-22.0946],[-70.13881,-22.09331],[-70.13919,-22.09295],[-70.13957,-22.09274],[-70.13992,-22.09269],[-70.14059,-22.09279],[-70.14092,-22.09294],[-70.14206,-22.09365],[-70.14237,-22.09372],[-70.14266,-22.09366],[-70.14284,-22.09353],[-70.14308,-22.09322],[-70.14325,-22.0928],[-70.14319,-22.09192],[-70.14297,-22.09047],[-70.14298,-22.09018],[-70.14305,-22.08998],[-70.14321,-22.08981],[-70.1435,-22.08964],[-70.1457,-22.08892],[-70.14593,-22.08877],[-70.14608,-22.08856],[-70.14613,-22.08835],[-70.14606,-22.08812],[-70.14545,-22.08757],[-70.14531,-22.08734],[-70.14534,-22.08705],[-70.14544,-22.08692],[-70.1456,-22.08682],[-70.14594,-22.08682],[-70.14803,-22.08776],[-70.14843,-22.08777],[-70.14868,-22.08767],[-70.14886,-22.0875],[-70.14975,-22.08611],[-70.14997,-22.08596],[-70.15038,-22.08588],[-70.15793,-22.0869],[-70.15843,-22.08687],[-70.15876,-22.08671],[-70.15896,-22.08648],[-70.15906,-22.0862],[-70.159,-22.08589],[-70.15877,-22.08566],[-70.15674,-22.08435],[-70.1566,-22.08412],[-70.15667,-22.08376],[-70.15702,-22.08323],[-70.15728,-22.08304],[-70.16106,-22.08242],[-70.16144,-22.08241],[-70.16187,-22.08251],[-70.16443,-22.08344],[-70.16467,-22.08347],[-70.16667,-22.08339],[-70.17038,-22.08398],[-70.17072,-22.08394],[-70.17115,-22.08372],[-70.17189,-22.0829],[-70.17222,-22.08276],[-70.17452,-22.08293],[-70.17474,-22.08289],[-70.176,-22.08244],[-70.17644,-22.08238],[-70.17877,-22.08272]]}},{"type":"Feature","properties":{"nombre":"Alexis Sánchez","jerarquia":5},"geometry":{"type":"LineString","coordinates":[[-70.18784,-22.08139],[-70.18862,-22.08203]]}},{"type":"Feature","properties":{"nombre":"Alexis Sánchez","jerarquia":5},"geometry":{"type":"LineString","coordinates":[[-70.18862,-22.08203],[-70.18872,-22.08211]]}},{"type":"Feature","properties":{"nombre":"Alexis Sánchez","jerarquia":5},"geometry":{"type":"LineString","coordinates":[[-70.18872,-22.08211],[-70.18881,-22.08218]]}},{"type":"Feature","properties":{"nombre":"Alexis Sánchez","jerarquia":5},"geometry":{"type":"LineString","coordinates":[[-70.18881,-22.08218],[-70.1896,-22.08282]]}},{"type":"Feature","properties":{"nombre":"Alexis Sánchez","jerarquia":5},"geometry":{"type":"LineString","coordinates":[[-70.1896,-22.08282],[-70.18997,-22.08314]]}},{"type":"Feature","properties":{"nombre":"Alexis Sánchez","jerarquia":5},"geometry":{"type":"LineString","coordinates":[[-70.18997,-22.08314],[-70.19031,-22.08343]]}},{"type":"Feature","properties":{"nombre":"Alexis Sánchez","jerarquia":5},"geometry":{"type":"LineString","coordinates":[[-70.19031,-22.08343],[-70.19038,-22.08349]]}},{"type":"Feature","properties":{"nombre":"Alexis Sánchez","jerarquia":5},"geometry":{"type":"LineString","coordinates":[[-70.19038,-22.08349],[-70.19049,-22.08359]]}},{"type":"Feature","properties":{"nombre":"Alexis Sánchez","jerarquia":5},"geometry":{"type":"LineString","coordinates":[[-70.19049,-22.08359],[-70.19093,-22.08394]]}},{"type":"Feature","properties":{"nombre":"Ruta 1","jerarquia":2},"geometry":{"type":"LineString","coordinates":[[-70.19519,-22.01243],[-70.19503,-22.01202],[-70.19482,-22.01172],[-70.19457,-22.01152],[-70.19409,-22.0113],[-70.19285,-22.01099],[-70.19143,-22.01057],[-70.18844,-22.00992],[-70.18685,-22.00941],[-70.18652,-22.00918],[-70.18635,-22.00893],[-70.18628,-22.00875],[-70.18626,-22.00847]]}},{"type":"Feature","properties":{"nombre":"Ruta 1","jerarquia":2},"geometry":{"type":"LineString","coordinates":[[-70.18292,-22.05168],[-70.18319,-22.05098]]}},{"type":"Feature","properties":{"nombre":"Ruta 1","jerarquia":2},"geometry":{"type":"LineString","coordinates":[[-70.18288,-22.05305],[-70.18282,-22.05228],[-70.18292,-22.05168]]}},{"type":"Feature","properties":{"nombre":"Ruta 1","jerarquia":2},"geometry":{"type":"LineString","coordinates":[[-70.18355,-22.05006],[-70.18335,-22.0508]]}},{"type":"Feature","properties":{"nombre":"Ruta 1","jerarquia":2},"geometry":{"type":"LineString","coordinates":[[-70.18319,-22.05098],[-70.18355,-22.05006]]}},{"type":"Feature","properties":{"nombre":"Ruta 1","jerarquia":2},"geometry":{"type":"LineString","coordinates":[[-70.18335,-22.0508],[-70.18295,-22.05193],[-70.18288,-22.05305]]}},{"type":"Feature","properties":{"nombre":"Ruta 1","jerarquia":2},"geometry":{"type":"LineString","coordinates":[[-70.18752,-22.06719],[-70.18638,-22.06631],[-70.18613,-22.06604],[-70.18585,-22.06551],[-70.18565,-22.06452],[-70.18539,-22.06394],[-70.18493,-22.06335],[-70.1839,-22.06238],[-70.1837,-22.06208],[-70.18354,-22.06172],[-70.18324,-22.06024],[-70.18321,-22.0599],[-70.18326,-22.05945],[-70.18358,-22.05852],[-70.18362,-22.05793],[-70.18355,-22.05756],[-70.18312,-22.05665],[-70.183,-22.05626],[-70.18303,-22.05466],[-70.18288,-22.05305]]}},{"type":"Feature","properties":{"nombre":"Teniente Merino","jerarquia":2},"geometry":{"type":"LineString","coordinates":[[-70.19278,-22.07547],[-70.19257,-22.07482]]}},{"type":"Feature","properties":{"nombre":"Ruta 1","jerarquia":2},"geometry":{"type":"LineString","coordinates":[[-70.19231,-22.07379],[-70.19255,-22.07443]]}},{"type":"Feature","properties":{"nombre":"Ruta 24","jerarquia":2},"geometry":{"type":"LineString","coordinates":[[-70.1911,-22.07493],[-70.19206,-22.07458]]}},{"type":"Feature","properties":{"nombre":"Ruta 1","jerarquia":2},"geometry":{"type":"LineString","coordinates":[[-70.19009,-22.07027],[-70.19123,-22.07175]]}},{"type":"Feature","properties":{"nombre":"Ruta 24","jerarquia":2},"geometry":{"type":"LineString","coordinates":[[-70.19244,-22.07446],[-70.19251,-22.07444]]}},{"type":"Feature","properties":{"nombre":"Ruta 24","jerarquia":2},"geometry":{"type":"LineString","coordinates":[[-70.19251,-22.07444],[-70.19255,-22.07443]]}},{"type":"Feature","properties":{"nombre":"Teniente Merino","jerarquia":2},"geometry":{"type":"LineString","coordinates":[[-70.19257,-22.07482],[-70.19244,-22.07446]]}},{"type":"Feature","properties":{"nombre":"Ruta 24","jerarquia":2},"geometry":{"type":"LineString","coordinates":[[-70.19206,-22.07458],[-70.19238,-22.07448]]}},{"type":"Feature","properties":{"nombre":"Ruta 24","jerarquia":2},"geometry":{"type":"LineString","coordinates":[[-70.19238,-22.07448],[-70.19244,-22.07446]]}},{"type":"Feature","properties":{"nombre":"Ruta 1","jerarquia":2},"geometry":{"type":"LineString","coordinates":[[-70.1916,-22.0724],[-70.19117,-22.0718]]}},{"type":"Feature","properties":{"nombre":"Ruta 1","jerarquia":2},"geometry":{"type":"LineString","coordinates":[[-70.19117,-22.0718],[-70.18972,-22.06995]]}},{"type":"Feature","properties":{"nombre":"Ruta 1","jerarquia":2},"geometry":{"type":"LineString","coordinates":[[-70.1892,-22.06911],[-70.1894,-22.06937]]}},{"type":"Feature","properties":{"nombre":"Ruta 1","jerarquia":2},"geometry":{"type":"LineString","coordinates":[[-70.18782,-22.06751],[-70.18752,-22.06719]]}},{"type":"Feature","properties":{"nombre":"Ruta 1","jerarquia":2},"geometry":{"type":"LineString","coordinates":[[-70.1885,-22.06838],[-70.18828,-22.0681]]}},{"type":"Feature","properties":{"nombre":"Ruta 1","jerarquia":2},"geometry":{"type":"LineString","coordinates":[[-70.18972,-22.06995],[-70.18911,-22.06917]]}},{"type":"Feature","properties":{"nombre":"Ruta 1","jerarquia":2},"geometry":{"type":"LineString","coordinates":[[-70.18911,-22.06917],[-70.1885,-22.06838]]}},{"type":"Feature","properties":{"nombre":"Ruta 1","jerarquia":2},"geometry":{"type":"LineString","coordinates":[[-70.18828,-22.0681],[-70.18782,-22.06751]]}},{"type":"Feature","properties":{"nombre":"Ruta 1","jerarquia":2},"geometry":{"type":"LineString","coordinates":[[-70.19232,-22.07407],[-70.19214,-22.07359]]}},{"type":"Feature","properties":{"nombre":"Ruta 1","jerarquia":2},"geometry":{"type":"LineString","coordinates":[[-70.19214,-22.07359],[-70.1921,-22.07349]]}},{"type":"Feature","properties":{"nombre":"Ruta 1","jerarquia":2},"geometry":{"type":"LineString","coordinates":[[-70.1921,-22.07349],[-70.192,-22.07321]]}},{"type":"Feature","properties":{"nombre":"Ruta 1","jerarquia":2},"geometry":{"type":"LineString","coordinates":[[-70.19244,-22.07446],[-70.19232,-22.07407]]}},{"type":"Feature","properties":{"nombre":"Ruta 1","jerarquia":2},"geometry":{"type":"LineString","coordinates":[[-70.1884,-22.06807],[-70.18909,-22.06897]]}},{"type":"Feature","properties":{"nombre":"Ruta 1","jerarquia":2},"geometry":{"type":"LineString","coordinates":[[-70.1894,-22.06937],[-70.19009,-22.07027]]}},{"type":"Feature","properties":{"nombre":"Ruta 1","jerarquia":2},"geometry":{"type":"LineString","coordinates":[[-70.18909,-22.06897],[-70.1892,-22.06911]]}},{"type":"Feature","properties":{"nombre":"","jerarquia":2},"geometry":{"type":"LineString","coordinates":[[-70.18909,-22.06897],[-70.18935,-22.06901]]}},{"type":"Feature","properties":{"nombre":"Teniente Merino","jerarquia":2},"geometry":{"type":"LineString","coordinates":[[-70.19389,-22.07863],[-70.19416,-22.07944]]}},{"type":"Feature","properties":{"nombre":"Teniente Merino","jerarquia":2},"geometry":{"type":"LineString","coordinates":[[-70.1941,-22.07949],[-70.19382,-22.07866]]}},{"type":"Feature","properties":{"nombre":"Teniente Merino","jerarquia":2},"geometry":{"type":"LineString","coordinates":[[-70.19382,-22.07866],[-70.19347,-22.07761]]}},{"type":"Feature","properties":{"nombre":"Teniente Merino","jerarquia":2},"geometry":{"type":"LineString","coordinates":[[-70.19379,-22.07832],[-70.19389,-22.07863]]}},{"type":"Feature","properties":{"nombre":"Teniente Merino","jerarquia":2},"geometry":{"type":"LineString","coordinates":[[-70.19255,-22.07443],[-70.19318,-22.07642]]}},{"type":"Feature","properties":{"nombre":"18 de Septiembre","jerarquia":3},"geometry":{"type":"LineString","coordinates":[[-70.18584,-22.08354],[-70.18528,-22.08326]]}},{"type":"Feature","properties":{"nombre":"18 de Septiembre","jerarquia":3},"geometry":{"type":"LineString","coordinates":[[-70.18528,-22.08326],[-70.185,-22.08312]]}},{"type":"Feature","properties":{"nombre":"Teniente Merino","jerarquia":2},"geometry":{"type":"LineString","coordinates":[[-70.19365,-22.07789],[-70.19379,-22.07832]]}},{"type":"Feature","properties":{"nombre":"Teniente Merino","jerarquia":2},"geometry":{"type":"LineString","coordinates":[[-70.19318,-22.07642],[-70.19354,-22.07754]]}},{"type":"Feature","properties":{"nombre":"Teniente Merino","jerarquia":2},"geometry":{"type":"LineString","coordinates":[[-70.19354,-22.07754],[-70.19356,-22.0776]]}},{"type":"Feature","properties":{"nombre":"Teniente Merino","jerarquia":2},"geometry":{"type":"LineString","coordinates":[[-70.19356,-22.0776],[-70.19365,-22.07789]]}},{"type":"Feature","properties":{"nombre":"Teniente Merino","jerarquia":2},"geometry":{"type":"LineString","coordinates":[[-70.19347,-22.07761],[-70.19345,-22.07754]]}},{"type":"Feature","properties":{"nombre":"Teniente Merino","jerarquia":2},"geometry":{"type":"LineString","coordinates":[[-70.19345,-22.07754],[-70.19278,-22.07547]]}},{"type":"Feature","properties":{"nombre":"Teniente Merino","jerarquia":2},"geometry":{"type":"LineString","coordinates":[[-70.19491,-22.0818],[-70.19497,-22.082]]}},{"type":"Feature","properties":{"nombre":"Teniente Merino","jerarquia":2},"geometry":{"type":"LineString","coordinates":[[-70.19425,-22.07969],[-70.19445,-22.08034]]}},{"type":"Feature","properties":{"nombre":"Teniente Merino","jerarquia":2},"geometry":{"type":"LineString","coordinates":[[-70.19445,-22.08034],[-70.1947,-22.08113]]}},{"type":"Feature","properties":{"nombre":"Teniente Merino","jerarquia":2},"geometry":{"type":"LineString","coordinates":[[-70.1949,-22.08206],[-70.19473,-22.0815]]}},{"type":"Feature","properties":{"nombre":"Teniente Merino","jerarquia":2},"geometry":{"type":"LineString","coordinates":[[-70.19473,-22.0815],[-70.19467,-22.08131]]}},{"type":"Feature","properties":{"nombre":"Teniente Merino","jerarquia":2},"geometry":{"type":"LineString","coordinates":[[-70.19467,-22.08131],[-70.19438,-22.08036]]}},{"type":"Feature","properties":{"nombre":"Teniente Merino","jerarquia":2},"geometry":{"type":"LineString","coordinates":[[-70.19438,-22.08036],[-70.19423,-22.0799]]}},{"type":"Feature","properties":{"nombre":"Teniente Uribe","jerarquia":5},"geometry":{"type":"LineString","coordinates":[[-70.1949,-22.08206],[-70.19497,-22.082]]}},{"type":"Feature","properties":{"nombre":"Teniente Merino","jerarquia":2},"geometry":{"type":"LineString","coordinates":[[-70.19416,-22.07944],[-70.19425,-22.07969]]}},{"type":"Feature","properties":{"nombre":"Teniente Merino","jerarquia":2},"geometry":{"type":"LineString","coordinates":[[-70.19423,-22.0799],[-70.1941,-22.07949]]}},{"type":"Feature","properties":{"nombre":"Teniente Merino","jerarquia":2},"geometry":{"type":"LineString","coordinates":[[-70.19595,-22.08526],[-70.19605,-22.0861]]}},{"type":"Feature","properties":{"nombre":"Teniente Uribe","jerarquia":5},"geometry":{"type":"LineString","coordinates":[[-70.19107,-22.08608],[-70.19115,-22.086]]}},{"type":"Feature","properties":{"nombre":"Teniente Uribe","jerarquia":5},"geometry":{"type":"LineString","coordinates":[[-70.19115,-22.086],[-70.1915,-22.08562]]}},{"type":"Feature","properties":{"nombre":"Teniente Merino","jerarquia":2},"geometry":{"type":"LineString","coordinates":[[-70.19547,-22.08346],[-70.19574,-22.08422]]}},{"type":"Feature","properties":{"nombre":"Teniente Merino","jerarquia":2},"geometry":{"type":"LineString","coordinates":[[-70.19536,-22.0834],[-70.1949,-22.08206]]}},{"type":"Feature","properties":{"nombre":"Teniente Merino","jerarquia":2},"geometry":{"type":"LineString","coordinates":[[-70.19566,-22.08423],[-70.19536,-22.0834]]}},{"type":"Feature","properties":{"nombre":"Teniente Merino","jerarquia":2},"geometry":{"type":"LineString","coordinates":[[-70.19581,-22.08475],[-70.19566,-22.08423]]}},{"type":"Feature","properties":{"nombre":"Teniente Merino","jerarquia":2},"geometry":{"type":"LineString","coordinates":[[-70.19589,-22.08474],[-70.19595,-22.08526]]}},{"type":"Feature","properties":{"nombre":"Teniente Merino","jerarquia":2},"geometry":{"type":"LineString","coordinates":[[-70.19574,-22.08422],[-70.19589,-22.08474]]}},{"type":"Feature","properties":{"nombre":"Teniente Merino","jerarquia":2},"geometry":{"type":"LineString","coordinates":[[-70.19497,-22.082],[-70.19547,-22.08346]]}},{"type":"Feature","properties":{"nombre":"Teniente Merino","jerarquia":2},"geometry":{"type":"LineString","coordinates":[[-70.19587,-22.08527],[-70.19581,-22.08475]]}},{"type":"Feature","properties":{"nombre":"18 de Septiembre","jerarquia":3},"geometry":{"type":"LineString","coordinates":[[-70.18687,-22.08408],[-70.18584,-22.08354]]}},{"type":"Feature","properties":{"nombre":"18 de Septiembre","jerarquia":3},"geometry":{"type":"LineString","coordinates":[[-70.1879,-22.08461],[-70.18725,-22.08428]]}},{"type":"Feature","properties":{"nombre":"18 de Septiembre","jerarquia":3},"geometry":{"type":"LineString","coordinates":[[-70.18725,-22.08428],[-70.18687,-22.08408]]}},{"type":"Feature","properties":{"nombre":"18 de Septiembre","jerarquia":3},"geometry":{"type":"LineString","coordinates":[[-70.18888,-22.08511],[-70.1879,-22.08461]]}},{"type":"Feature","properties":{"nombre":"18 de Septiembre","jerarquia":3},"geometry":{"type":"LineString","coordinates":[[-70.18993,-22.08565],[-70.18888,-22.08511]]}},{"type":"Feature","properties":{"nombre":"18 de Septiembre","jerarquia":3},"geometry":{"type":"LineString","coordinates":[[-70.19097,-22.08619],[-70.18993,-22.08565]]}},{"type":"Feature","properties":{"nombre":"18 de Septiembre","jerarquia":3},"geometry":{"type":"LineString","coordinates":[[-70.19165,-22.08655],[-70.19097,-22.08619]]}},{"type":"Feature","properties":{"nombre":"18 de Septiembre","jerarquia":3},"geometry":{"type":"LineString","coordinates":[[-70.19204,-22.08674],[-70.19165,-22.08655]]}},{"type":"Feature","properties":{"nombre":"18 de Septiembre","jerarquia":3},"geometry":{"type":"LineString","coordinates":[[-70.19107,-22.08608],[-70.1917,-22.0864]]}},{"type":"Feature","properties":{"nombre":"18 de Septiembre","jerarquia":3},"geometry":{"type":"LineString","coordinates":[[-70.19003,-22.08554],[-70.19107,-22.08608]]}},{"type":"Feature","properties":{"nombre":"18 de Septiembre","jerarquia":3},"geometry":{"type":"LineString","coordinates":[[-70.18899,-22.085],[-70.19003,-22.08554]]}},{"type":"Feature","properties":{"nombre":"18 de Septiembre","jerarquia":3},"geometry":{"type":"LineString","coordinates":[[-70.18801,-22.0845],[-70.18899,-22.085]]}},{"type":"Feature","properties":{"nombre":"18 de Septiembre","jerarquia":3},"geometry":{"type":"LineString","coordinates":[[-70.18698,-22.08397],[-70.18801,-22.0845]]}},{"type":"Feature","properties":{"nombre":"18 de Septiembre","jerarquia":3},"geometry":{"type":"LineString","coordinates":[[-70.18594,-22.08344],[-70.18698,-22.08397]]}},{"type":"Feature","properties":{"nombre":"Ruta 24","jerarquia":2},"geometry":{"type":"LineString","coordinates":[[-70.18249,-22.08277],[-70.18314,-22.08261]]}},{"type":"Feature","properties":{"nombre":"Ruta 24","jerarquia":2},"geometry":{"type":"LineString","coordinates":[[-70.18382,-22.08244],[-70.18325,-22.08275]]}},{"type":"Feature","properties":{"nombre":"18 de Septiembre","jerarquia":3},"geometry":{"type":"LineString","coordinates":[[-70.18325,-22.08275],[-70.18333,-22.08275]]}},{"type":"Feature","properties":{"nombre":"18 de Septiembre","jerarquia":3},"geometry":{"type":"LineString","coordinates":[[-70.18333,-22.08275],[-70.1839,-22.08274]]}},{"type":"Feature","properties":{"nombre":"18 de Septiembre","jerarquia":2},"geometry":{"type":"LineString","coordinates":[[-70.18316,-22.08275],[-70.18325,-22.08275]]}},{"type":"Feature","properties":{"nombre":"18 de Septiembre","jerarquia":2},"geometry":{"type":"LineString","coordinates":[[-70.18249,-22.08277],[-70.18311,-22.08275]]}},{"type":"Feature","properties":{"nombre":"18 de Septiembre","jerarquia":2},"geometry":{"type":"LineString","coordinates":[[-70.18311,-22.08275],[-70.18316,-22.08275]]}},{"type":"Feature","properties":{"nombre":"18 de Septiembre","jerarquia":3},"geometry":{"type":"LineString","coordinates":[[-70.18448,-22.08288],[-70.18509,-22.08309]]}},{"type":"Feature","properties":{"nombre":"18 de Septiembre","jerarquia":3},"geometry":{"type":"LineString","coordinates":[[-70.185,-22.08312],[-70.18448,-22.08288]]}},{"type":"Feature","properties":{"nombre":"18 de Septiembre","jerarquia":3},"geometry":{"type":"LineString","coordinates":[[-70.18509,-22.08309],[-70.18594,-22.08344]]}},{"type":"Feature","properties":{"nombre":"","jerarquia":2},"geometry":{"type":"LineString","coordinates":[[-70.18316,-22.08275],[-70.18314,-22.08265]]}},{"type":"Feature","properties":{"nombre":"","jerarquia":2},"geometry":{"type":"LineString","coordinates":[[-70.18314,-22.08265],[-70.18314,-22.08261]]}},{"type":"Feature","properties":{"nombre":"Barros Arana","jerarquia":5},"geometry":{"type":"LineString","coordinates":[[-70.1973,-22.08778],[-70.19736,-22.08803]]}},{"type":"Feature","properties":{"nombre":"Barros Arana","jerarquia":5},"geometry":{"type":"LineString","coordinates":[[-70.19736,-22.08803],[-70.19752,-22.08831],[-70.19765,-22.08843]]}},{"type":"Feature","properties":{"nombre":"Barros Arana","jerarquia":5},"geometry":{"type":"LineString","coordinates":[[-70.1969,-22.08602],[-70.19698,-22.0862]]}},{"type":"Feature","properties":{"nombre":"Barros Arana","jerarquia":5},"geometry":{"type":"LineString","coordinates":[[-70.19698,-22.0862],[-70.19716,-22.08679]]}},{"type":"Feature","properties":{"nombre":"Barros Arana","jerarquia":5},"geometry":{"type":"LineString","coordinates":[[-70.19716,-22.08679],[-70.1973,-22.08778]]}},{"type":"Feature","properties":{"nombre":"Avenida Arturo Prat","jerarquia":2},"geometry":{"type":"LineString","coordinates":[[-70.19622,-22.08876],[-70.19718,-22.08931]]}},{"type":"Feature","properties":{"nombre":"Avenida Arturo Prat","jerarquia":2},"geometry":{"type":"LineString","coordinates":[[-70.19712,-22.08937],[-70.19618,-22.08888]]}},{"type":"Feature","properties":{"nombre":"Avenida Arturo Prat","jerarquia":2},"geometry":{"type":"LineString","coordinates":[[-70.19618,-22.08888],[-70.19612,-22.08885]]}},{"type":"Feature","properties":{"nombre":"Teniente Merino","jerarquia":2},"geometry":{"type":"LineString","coordinates":[[-70.19627,-22.08812],[-70.19617,-22.08851]]}},{"type":"Feature","properties":{"nombre":"Teniente Merino","jerarquia":2},"geometry":{"type":"LineString","coordinates":[[-70.19617,-22.08851],[-70.19615,-22.08859]]}},{"type":"Feature","properties":{"nombre":"Teniente Merino","jerarquia":2},"geometry":{"type":"LineString","coordinates":[[-70.19605,-22.0861],[-70.19616,-22.0868]]}},{"type":"Feature","properties":{"nombre":"Teniente Uribe","jerarquia":5},"geometry":{"type":"LineString","coordinates":[[-70.18923,-22.0881],[-70.18961,-22.08768]]}},{"type":"Feature","properties":{"nombre":"Teniente Uribe","jerarquia":5},"geometry":{"type":"LineString","coordinates":[[-70.18961,-22.08768],[-70.18995,-22.08731]]}},{"type":"Feature","properties":{"nombre":"Teniente Uribe","jerarquia":5},"geometry":{"type":"LineString","coordinates":[[-70.18995,-22.08731],[-70.19031,-22.08691]]}},{"type":"Feature","properties":{"nombre":"Teniente Uribe","jerarquia":5},"geometry":{"type":"LineString","coordinates":[[-70.19031,-22.08691],[-70.19067,-22.08652]]}},{"type":"Feature","properties":{"nombre":"Teniente Uribe","jerarquia":5},"geometry":{"type":"LineString","coordinates":[[-70.19067,-22.08652],[-70.19092,-22.08624]]}},{"type":"Feature","properties":{"nombre":"Teniente Uribe","jerarquia":5},"geometry":{"type":"LineString","coordinates":[[-70.19092,-22.08624],[-70.19097,-22.08619]]}},{"type":"Feature","properties":{"nombre":"Teniente Uribe","jerarquia":5},"geometry":{"type":"LineString","coordinates":[[-70.19097,-22.08619],[-70.19099,-22.08616]]}},{"type":"Feature","properties":{"nombre":"Teniente Uribe","jerarquia":5},"geometry":{"type":"LineString","coordinates":[[-70.19099,-22.08616],[-70.19104,-22.08611]]}},{"type":"Feature","properties":{"nombre":"Teniente Uribe","jerarquia":5},"geometry":{"type":"LineString","coordinates":[[-70.19104,-22.08611],[-70.19107,-22.08608]]}},{"type":"Feature","properties":{"nombre":"Ruta 24","jerarquia":2},"geometry":{"type":"LineString","coordinates":[[-70.17877,-22.08272],[-70.1797,-22.08283]]}},{"type":"Feature","properties":{"nombre":"Ruta 24","jerarquia":2},"geometry":{"type":"LineString","coordinates":[[-70.18079,-22.08283],[-70.18249,-22.08277]]}},{"type":"Feature","properties":{"nombre":"Ruta 24","jerarquia":2},"geometry":{"type":"LineString","coordinates":[[-70.1797,-22.08283],[-70.18079,-22.08283]]}},{"type":"Feature","properties":{"nombre":"Avenida Arturo Prat","jerarquia":2},"geometry":{"type":"LineString","coordinates":[[-70.21513,-22.10454],[-70.21519,-22.10483],[-70.21528,-22.10619],[-70.21525,-22.10654],[-70.21514,-22.10688]]}},{"type":"Feature","properties":{"nombre":"Avenida Arturo Prat","jerarquia":2},"geometry":{"type":"LineString","coordinates":[[-70.21507,-22.10686],[-70.21516,-22.10663],[-70.2152,-22.10632],[-70.21503,-22.10456]]}},{"type":"Feature","properties":{"nombre":"Avenida Arturo Prat","jerarquia":2},"geometry":{"type":"LineString","coordinates":[[-70.2148,-22.10377],[-70.2145,-22.10273]]}},{"type":"Feature","properties":{"nombre":"Avenida Arturo Prat","jerarquia":2},"geometry":{"type":"LineString","coordinates":[[-70.21487,-22.10365],[-70.21513,-22.10454]]}},{"type":"Feature","properties":{"nombre":"Avenida Arturo Prat","jerarquia":2},"geometry":{"type":"LineString","coordinates":[[-70.21503,-22.10456],[-70.2148,-22.10377]]}},{"type":"Feature","properties":{"nombre":"Avenida Arturo Prat","jerarquia":2},"geometry":{"type":"LineString","coordinates":[[-70.21479,-22.10341],[-70.21487,-22.10365]]}},{"type":"Feature","properties":{"nombre":"Avenida Arturo Prat","jerarquia":2},"geometry":{"type":"LineString","coordinates":[[-70.21458,-22.1027],[-70.21479,-22.10341]]}},{"type":"Feature","properties":{"nombre":"Avenida Arturo Prat","jerarquia":2},"geometry":{"type":"LineString","coordinates":[[-70.2145,-22.10273],[-70.21426,-22.10201],[-70.21386,-22.10138]]}},{"type":"Feature","properties":{"nombre":"Avenida Arturo Prat","jerarquia":2},"geometry":{"type":"LineString","coordinates":[[-70.21404,-22.10149],[-70.21439,-22.10211],[-70.21458,-22.1027]]}},{"type":"Feature","properties":{"nombre":"Avenida Arturo Prat","jerarquia":2},"geometry":{"type":"LineString","coordinates":[[-70.20919,-22.09882],[-70.20857,-22.09816]]}},{"type":"Feature","properties":{"nombre":"Avenida Arturo Prat","jerarquia":2},"geometry":{"type":"LineString","coordinates":[[-70.21386,-22.10138],[-70.21351,-22.10096]]}},{"type":"Feature","properties":{"nombre":"Avenida Arturo Prat","jerarquia":2},"geometry":{"type":"LineString","coordinates":[[-70.21351,-22.10096],[-70.21322,-22.10062],[-70.21274,-22.1003],[-70.21247,-22.1002],[-70.21134,-22.09995]]}},{"type":"Feature","properties":{"nombre":"Avenida Arturo Prat","jerarquia":2},"geometry":{"type":"LineString","coordinates":[[-70.2136,-22.10091],[-70.21404,-22.10149]]}},{"type":"Feature","properties":{"nombre":"Avenida Arturo Prat","jerarquia":2},"geometry":{"type":"LineString","coordinates":[[-70.21337,-22.10065],[-70.2136,-22.10091]]}},{"type":"Feature","properties":{"nombre":"Avenida Arturo Prat","jerarquia":2},"geometry":{"type":"LineString","coordinates":[[-70.21279,-22.10024],[-70.21307,-22.1004],[-70.21337,-22.10065]]}},{"type":"Feature","properties":{"nombre":"Avenida Arturo Prat","jerarquia":2},"geometry":{"type":"LineString","coordinates":[[-70.21136,-22.09987],[-70.21196,-22.1]]}},{"type":"Feature","properties":{"nombre":"Avenida Arturo Prat","jerarquia":2},"geometry":{"type":"LineString","coordinates":[[-70.21196,-22.1],[-70.21279,-22.10024]]}},{"type":"Feature","properties":{"nombre":"Avenida Arturo Prat","jerarquia":2},"geometry":{"type":"LineString","coordinates":[[-70.21029,-22.09967],[-70.21136,-22.09987]]}},{"type":"Feature","properties":{"nombre":"Avenida Arturo Prat","jerarquia":2},"geometry":{"type":"LineString","coordinates":[[-70.21134,-22.09995],[-70.21025,-22.09973],[-70.21002,-22.09964],[-70.20985,-22.09952],[-70.20919,-22.09882]]}},{"type":"Feature","properties":{"nombre":"Avenida Arturo Prat","jerarquia":2},"geometry":{"type":"LineString","coordinates":[[-70.20862,-22.09811],[-70.20988,-22.09947],[-70.21005,-22.09959],[-70.21029,-22.09967]]}},{"type":"Feature","properties":{"nombre":"Avenida Arturo Prat","jerarquia":2},"geometry":{"type":"LineString","coordinates":[[-70.20857,-22.09816],[-70.20806,-22.09764]]}},{"type":"Feature","properties":{"nombre":"Sargento Aldea","jerarquia":5},"geometry":{"type":"LineString","coordinates":[[-70.20626,-22.09603],[-70.2062,-22.09609]]}},{"type":"Feature","properties":{"nombre":"Avenida Arturo Prat","jerarquia":2},"geometry":{"type":"LineString","coordinates":[[-70.2055,-22.09541],[-70.20626,-22.09603]]}},{"type":"Feature","properties":{"nombre":"Avenida Arturo Prat","jerarquia":2},"geometry":{"type":"LineString","coordinates":[[-70.2062,-22.09609],[-70.20554,-22.09555]]}},{"type":"Feature","properties":{"nombre":"Avenida Arturo Prat","jerarquia":2},"geometry":{"type":"LineString","coordinates":[[-70.20554,-22.09555],[-70.20545,-22.09547]]}},{"type":"Feature","properties":{"nombre":"San Martín","jerarquia":5},"geometry":{"type":"LineString","coordinates":[[-70.20545,-22.09547],[-70.2055,-22.09541]]}},{"type":"Feature","properties":{"nombre":"Colón","jerarquia":4},"geometry":{"type":"LineString","coordinates":[[-70.20109,-22.09181],[-70.20105,-22.09186]]}},{"type":"Feature","properties":{"nombre":"Avenida Arturo Prat","jerarquia":2},"geometry":{"type":"LineString","coordinates":[[-70.20205,-22.09259],[-70.20286,-22.09326]]}},{"type":"Feature","properties":{"nombre":"Aníbal Pinto","jerarquia":5},"geometry":{"type":"LineString","coordinates":[[-70.202,-22.09264],[-70.20205,-22.09259]]}},{"type":"Feature","properties":{"nombre":"Avenida Arturo Prat","jerarquia":2},"geometry":{"type":"LineString","coordinates":[[-70.202,-22.09264],[-70.20105,-22.09186]]}},{"type":"Feature","properties":{"nombre":"Avenida Arturo Prat","jerarquia":2},"geometry":{"type":"LineString","coordinates":[[-70.20286,-22.09326],[-70.20362,-22.09388]]}},{"type":"Feature","properties":{"nombre":"Avenida Arturo Prat","jerarquia":2},"geometry":{"type":"LineString","coordinates":[[-70.20362,-22.09388],[-70.20374,-22.09398]]}},{"type":"Feature","properties":{"nombre":"Avenida Arturo Prat","jerarquia":2},"geometry":{"type":"LineString","coordinates":[[-70.20369,-22.09403],[-70.20281,-22.09331]]}},{"type":"Feature","properties":{"nombre":"Bolívar","jerarquia":5},"geometry":{"type":"LineString","coordinates":[[-70.20286,-22.09326],[-70.20281,-22.09331]]}},{"type":"Feature","properties":{"nombre":"Avenida Arturo Prat","jerarquia":2},"geometry":{"type":"LineString","coordinates":[[-70.20457,-22.09475],[-70.20378,-22.09411]]}},{"type":"Feature","properties":{"nombre":"Avenida Arturo Prat","jerarquia":2},"geometry":{"type":"LineString","coordinates":[[-70.20378,-22.09411],[-70.20369,-22.09403]]}},{"type":"Feature","properties":{"nombre":"Avenida Arturo Prat","jerarquia":2},"geometry":{"type":"LineString","coordinates":[[-70.20374,-22.09398],[-70.2045,-22.09459]]}},{"type":"Feature","properties":{"nombre":"Avenida Arturo Prat","jerarquia":2},"geometry":{"type":"LineString","coordinates":[[-70.2045,-22.09459],[-70.20462,-22.09469]]}},{"type":"Feature","properties":{"nombre":"Avenida Arturo Prat","jerarquia":2},"geometry":{"type":"LineString","coordinates":[[-70.20545,-22.09547],[-70.20468,-22.09484]]}},{"type":"Feature","properties":{"nombre":"Avenida Arturo Prat","jerarquia":2},"geometry":{"type":"LineString","coordinates":[[-70.20468,-22.09484],[-70.20457,-22.09475]]}},{"type":"Feature","properties":{"nombre":"Avenida Arturo Prat","jerarquia":2},"geometry":{"type":"LineString","coordinates":[[-70.20462,-22.09469],[-70.2054,-22.09533]]}},{"type":"Feature","properties":{"nombre":"Avenida Arturo Prat","jerarquia":2},"geometry":{"type":"LineString","coordinates":[[-70.2054,-22.09533],[-70.2055,-22.09541]]}},{"type":"Feature","properties":{"nombre":"Barros Arana","jerarquia":5},"geometry":{"type":"LineString","coordinates":[[-70.20319,-22.09337],[-70.20402,-22.09367]]}},{"type":"Feature","properties":{"nombre":"Barros Arana","jerarquia":5},"geometry":{"type":"LineString","coordinates":[[-70.20402,-22.09367],[-70.20524,-22.09401]]}},{"type":"Feature","properties":{"nombre":"Barros Arana","jerarquia":5},"geometry":{"type":"LineString","coordinates":[[-70.20524,-22.09401],[-70.20639,-22.09435]]}},{"type":"Feature","properties":{"nombre":"Barros Arana","jerarquia":5},"geometry":{"type":"LineString","coordinates":[[-70.2001,-22.09048],[-70.2005,-22.09079]]}},{"type":"Feature","properties":{"nombre":"Barros Arana","jerarquia":5},"geometry":{"type":"LineString","coordinates":[[-70.19765,-22.08843],[-70.2001,-22.09048]]}},{"type":"Feature","properties":{"nombre":"Avenida Arturo Prat","jerarquia":2},"geometry":{"type":"LineString","coordinates":[[-70.19823,-22.08986],[-70.19923,-22.09043]]}},{"type":"Feature","properties":{"nombre":"Avenida Arturo Prat","jerarquia":2},"geometry":{"type":"LineString","coordinates":[[-70.1992,-22.09047],[-70.19819,-22.08991]]}},{"type":"Feature","properties":{"nombre":"Avenida Arturo Prat","jerarquia":2},"geometry":{"type":"LineString","coordinates":[[-70.20021,-22.09112],[-70.20109,-22.09181]]}},{"type":"Feature","properties":{"nombre":"Avenida Arturo Prat","jerarquia":2},"geometry":{"type":"LineString","coordinates":[[-70.20017,-22.09117],[-70.1992,-22.09047]]}},{"type":"Feature","properties":{"nombre":"Aníbal Pinto","jerarquia":5},"geometry":{"type":"LineString","coordinates":[[-70.20117,-22.09338],[-70.20191,-22.09271]]}},{"type":"Feature","properties":{"nombre":"Aníbal Pinto","jerarquia":5},"geometry":{"type":"LineString","coordinates":[[-70.20191,-22.09271],[-70.202,-22.09264]]}},{"type":"Feature","properties":{"nombre":"Avenida Arturo Prat","jerarquia":2},"geometry":{"type":"LineString","coordinates":[[-70.19772,-22.08968],[-70.19712,-22.08937]]}},{"type":"Feature","properties":{"nombre":"Avenida Arturo Prat","jerarquia":2},"geometry":{"type":"LineString","coordinates":[[-70.20811,-22.0976],[-70.20862,-22.09811]]}},{"type":"Feature","properties":{"nombre":"Avenida Arturo Prat","jerarquia":2},"geometry":{"type":"LineString","coordinates":[[-70.20671,-22.0964],[-70.20811,-22.0976]]}},{"type":"Feature","properties":{"nombre":"Avenida Arturo Prat","jerarquia":2},"geometry":{"type":"LineString","coordinates":[[-70.20806,-22.09764],[-70.20664,-22.09645]]}},{"type":"Feature","properties":{"nombre":"Avenida Arturo Prat","jerarquia":2},"geometry":{"type":"LineString","coordinates":[[-70.20664,-22.09645],[-70.2062,-22.09609]]}},{"type":"Feature","properties":{"nombre":"Avenida Arturo Prat","jerarquia":2},"geometry":{"type":"LineString","coordinates":[[-70.20626,-22.09603],[-70.20671,-22.0964]]}},{"type":"Feature","properties":{"nombre":"San Martín","jerarquia":5},"geometry":{"type":"LineString","coordinates":[[-70.20384,-22.09695],[-70.20459,-22.09635]]}},{"type":"Feature","properties":{"nombre":"San Martín","jerarquia":5},"geometry":{"type":"LineString","coordinates":[[-70.20459,-22.09635],[-70.20472,-22.09625]]}},{"type":"Feature","properties":{"nombre":"San Martín","jerarquia":5},"geometry":{"type":"LineString","coordinates":[[-70.20472,-22.09625],[-70.20535,-22.09558]]}},{"type":"Feature","properties":{"nombre":"San Martín","jerarquia":5},"geometry":{"type":"LineString","coordinates":[[-70.20535,-22.09558],[-70.20545,-22.09547]]}},{"type":"Feature","properties":{"nombre":"Avenida Arturo Prat","jerarquia":2},"geometry":{"type":"LineString","coordinates":[[-70.20109,-22.09181],[-70.20205,-22.09259]]}},{"type":"Feature","properties":{"nombre":"Avenida Arturo Prat","jerarquia":2},"geometry":{"type":"LineString","coordinates":[[-70.20281,-22.09331],[-70.202,-22.09264]]}},{"type":"Feature","properties":{"nombre":"Avenida Arturo Prat","jerarquia":2},"geometry":{"type":"LineString","coordinates":[[-70.19923,-22.09043],[-70.20021,-22.09112]]}},{"type":"Feature","properties":{"nombre":"Avenida Arturo Prat","jerarquia":2},"geometry":{"type":"LineString","coordinates":[[-70.19718,-22.08931],[-70.19823,-22.08986]]}},{"type":"Feature","properties":{"nombre":"Avenida Arturo Prat","jerarquia":2},"geometry":{"type":"LineString","coordinates":[[-70.19819,-22.08991],[-70.19772,-22.08968]]}},{"type":"Feature","properties":{"nombre":"Avenida Arturo Prat","jerarquia":2},"geometry":{"type":"LineString","coordinates":[[-70.20105,-22.09186],[-70.20017,-22.09117]]}},{"type":"Feature","properties":{"nombre":"Ruta 1","jerarquia":2},"geometry":{"type":"LineString","coordinates":[[-70.21332,-22.12724],[-70.2136,-22.12622]]}},{"type":"Feature","properties":{"nombre":"Ruta 1","jerarquia":2},"geometry":{"type":"LineString","coordinates":[[-70.2136,-22.12622],[-70.21448,-22.12305],[-70.21481,-22.12159],[-70.21492,-22.12041],[-70.21484,-22.11921]]}},{"type":"Feature","properties":{"nombre":"Ruta 1","jerarquia":2},"geometry":{"type":"LineString","coordinates":[[-70.21299,-22.12838],[-70.21332,-22.12724]]}},{"type":"Feature","properties":{"nombre":"Ruta 1","jerarquia":2},"geometry":{"type":"LineString","coordinates":[[-70.21484,-22.11921],[-70.21469,-22.11827],[-70.2145,-22.11762]]}},{"type":"Feature","properties":{"nombre":"Ruta 1","jerarquia":2},"geometry":{"type":"LineString","coordinates":[[-70.21422,-22.11673],[-70.21414,-22.11652]]}},{"type":"Feature","properties":{"nombre":"Ruta 1","jerarquia":2},"geometry":{"type":"LineString","coordinates":[[-70.21431,-22.11703],[-70.21422,-22.11673]]}},{"type":"Feature","properties":{"nombre":"Ruta 1","jerarquia":2},"geometry":{"type":"LineString","coordinates":[[-70.2145,-22.11762],[-70.21431,-22.11703]]}},{"type":"Feature","properties":{"nombre":"Ruta 1","jerarquia":2},"geometry":{"type":"LineString","coordinates":[[-70.21405,-22.11627],[-70.21383,-22.1157]]}},{"type":"Feature","properties":{"nombre":"Ruta 1","jerarquia":2},"geometry":{"type":"LineString","coordinates":[[-70.21383,-22.1157],[-70.21368,-22.11535]]}},{"type":"Feature","properties":{"nombre":"Ruta 1","jerarquia":2},"geometry":{"type":"LineString","coordinates":[[-70.21414,-22.11652],[-70.21405,-22.11627]]}},{"type":"Feature","properties":{"nombre":"Avenida Arturo Prat","jerarquia":2},"geometry":{"type":"LineString","coordinates":[[-70.21358,-22.11508],[-70.21368,-22.11535]]}},{"type":"Feature","properties":{"nombre":"Avenida Arturo Prat","jerarquia":2},"geometry":{"type":"LineString","coordinates":[[-70.21353,-22.11511],[-70.21316,-22.11441]]}},{"type":"Feature","properties":{"nombre":"Avenida Arturo Prat","jerarquia":2},"geometry":{"type":"LineString","coordinates":[[-70.21216,-22.11109],[-70.21233,-22.11072],[-70.2126,-22.11033]]}},{"type":"Feature","properties":{"nombre":"Avenida Arturo Prat","jerarquia":2},"geometry":{"type":"LineString","coordinates":[[-70.21266,-22.11038],[-70.2124,-22.11074],[-70.21224,-22.11109]]}},{"type":"Feature","properties":{"nombre":"Avenida Arturo Prat","jerarquia":2},"geometry":{"type":"LineString","coordinates":[[-70.21256,-22.11315],[-70.21322,-22.11438]]}},{"type":"Feature","properties":{"nombre":"Avenida Arturo Prat","jerarquia":2},"geometry":{"type":"LineString","coordinates":[[-70.21316,-22.11441],[-70.21246,-22.11315]]}},{"type":"Feature","properties":{"nombre":"Avenida Arturo Prat","jerarquia":2},"geometry":{"type":"LineString","coordinates":[[-70.21246,-22.11315],[-70.21209,-22.11235]]}},{"type":"Feature","properties":{"nombre":"Avenida Arturo Prat","jerarquia":2},"geometry":{"type":"LineString","coordinates":[[-70.21216,-22.11232],[-70.21256,-22.11315]]}},{"type":"Feature","properties":{"nombre":"Avenida Arturo Prat","jerarquia":2},"geometry":{"type":"LineString","coordinates":[[-70.21322,-22.11438],[-70.21358,-22.11508]]}},{"type":"Feature","properties":{"nombre":"Avenida Arturo Prat","jerarquia":2},"geometry":{"type":"LineString","coordinates":[[-70.21209,-22.11235],[-70.21203,-22.11178],[-70.21216,-22.11109]]}},{"type":"Feature","properties":{"nombre":"Avenida Arturo Prat","jerarquia":2},"geometry":{"type":"LineString","coordinates":[[-70.2126,-22.11033],[-70.21286,-22.11005]]}},{"type":"Feature","properties":{"nombre":"Avenida Arturo Prat","jerarquia":2},"geometry":{"type":"LineString","coordinates":[[-70.21292,-22.11009],[-70.21266,-22.11038]]}},{"type":"Feature","properties":{"nombre":"Avenida Arturo Prat","jerarquia":2},"geometry":{"type":"LineString","coordinates":[[-70.21286,-22.11005],[-70.21296,-22.10995]]}},{"type":"Feature","properties":{"nombre":"Avenida Arturo Prat","jerarquia":2},"geometry":{"type":"LineString","coordinates":[[-70.21302,-22.11],[-70.21292,-22.11009]]}},{"type":"Feature","properties":{"nombre":"Avenida Arturo Prat","jerarquia":2},"geometry":{"type":"LineString","coordinates":[[-70.21375,-22.10914],[-70.21409,-22.10881]]}},{"type":"Feature","properties":{"nombre":"Avenida Arturo Prat","jerarquia":2},"geometry":{"type":"LineString","coordinates":[[-70.21365,-22.10925],[-70.21375,-22.10914]]}},{"type":"Feature","properties":{"nombre":"Avenida Arturo Prat","jerarquia":2},"geometry":{"type":"LineString","coordinates":[[-70.2137,-22.1093],[-70.21302,-22.11]]}},{"type":"Feature","properties":{"nombre":"Avenida Arturo Prat","jerarquia":2},"geometry":{"type":"LineString","coordinates":[[-70.21381,-22.10919],[-70.2137,-22.1093]]}},{"type":"Feature","properties":{"nombre":"Avenida Arturo Prat","jerarquia":2},"geometry":{"type":"LineString","coordinates":[[-70.21514,-22.10688],[-70.21476,-22.10774]]}},{"type":"Feature","properties":{"nombre":"Avenida Arturo Prat","jerarquia":2},"geometry":{"type":"LineString","coordinates":[[-70.21476,-22.10774],[-70.21453,-22.10824]]}},{"type":"Feature","properties":{"nombre":"Avenida Arturo Prat","jerarquia":2},"geometry":{"type":"LineString","coordinates":[[-70.21446,-22.10822],[-70.21507,-22.10686]]}},{"type":"Feature","properties":{"nombre":"Avenida Arturo Prat","jerarquia":2},"geometry":{"type":"LineString","coordinates":[[-70.21409,-22.10881],[-70.21429,-22.10856],[-70.21446,-22.10822]]}},{"type":"Feature","properties":{"nombre":"Avenida Arturo Prat","jerarquia":2},"geometry":{"type":"LineString","coordinates":[[-70.21296,-22.10995],[-70.21365,-22.10925]]}},{"type":"Feature","properties":{"nombre":"Avenida Arturo Prat","jerarquia":2},"geometry":{"type":"LineString","coordinates":[[-70.21414,-22.10886],[-70.21381,-22.10919]]}},{"type":"Feature","properties":{"nombre":"Avenida Arturo Prat","jerarquia":2},"geometry":{"type":"LineString","coordinates":[[-70.21453,-22.10824],[-70.21433,-22.10864],[-70.21414,-22.10886]]}},{"type":"Feature","properties":{"nombre":"Ruta 1","jerarquia":2},"geometry":{"type":"LineString","coordinates":[[-70.22222,-22.15357],[-70.2221,-22.15262],[-70.22183,-22.15137],[-70.22152,-22.15042],[-70.22108,-22.14933]]}},{"type":"Feature","properties":{"nombre":"Ruta 1","jerarquia":2},"geometry":{"type":"LineString","coordinates":[[-70.22108,-22.14933],[-70.21785,-22.14137],[-70.21753,-22.14066],[-70.21687,-22.13966],[-70.21412,-22.13617],[-70.21352,-22.13521],[-70.21306,-22.13419],[-70.21268,-22.13285],[-70.21256,-22.13204],[-70.21252,-22.13121],[-70.21264,-22.12984],[-70.21299,-22.12838]]}},{"type":"Feature","properties":{"nombre":"Teniente Merino","jerarquia":2},"geometry":{"type":"LineString","coordinates":[[-70.1947,-22.08113],[-70.19491,-22.0818]]}}]}